{"version": 0.6, "generator": "Overpass API 0.7.56.9 76e5016d", "osm3s": {"timestamp_osm_base": "2021-08-24T09:02:44Z", "copyright": "The data included in this document is from www.openstreetmap.org. The data is made available under ODbL."}, "elements": [{"type": "node", "id": 89140184, "lat": 41.3751737, "lon": 2.1675099, "tags": {"amenity": "drinking_water"}}, {"type": "node", "id": 312682274, "lat": 41.3669126, "lon": 2.1584826, "tags": {"amenity": "drinking_water"}}, {"type": "node", "id": 312682293, "lat": 41.3671176, "lon": 2.1452728, "tags": {"amenity": "drinking_water"}}, {"type": "node", "id": 312682294, "lat": 41.3671138, "lon": 2.1444009, "tags": {"amenity": "drinking_water"}}, {"type": "node", "id": 312682355, "lat": 41.3764325, "lon": 2.153448, "tags": {"amenity": "drinking_water"}}, {"type": "node", "id": 430607924, "lat": 41.3851599, "lon": 2.1701722, "tags": {"amenity": "drinking_water", "name": "Font de Canaletes", "name:ca": "Font de Canaletes", "name:ru": "\u0424\u043e\u043d\u0442\u0430\u043d Font de Canaletes", "tourism": "artwork", "wikidata": "Q2723971", "wikipedia": "en:Font de Canaletes"}}, {"type": "node", "id": 535635461, "lat": 41.392441, "lon": 2.178558, "tags": {"amenity": "drinking_water"}}, {"type": "node", "id": 582895648, "lat": 41.4167305, "lon": 2.1265457, "tags": {"amenity": "drinking_water"}}, {"type": "node", "id": 620075020, "lat": 41.4203707, "lon": 2.100486, "tags": {"amenity": "drinking_water", "name": "Font Joana"}}, {"type": "node", "id": 620075022, "lat": 41.4207277, "lon": 2.1011297, "tags": {"amenity": "drinking_water", "name": "Font dels Platans"}}, {"type": "node", "id": 673078118, "lat": 41.3888697, "lon": 2.1675389, "tags": {"amenity": "drinking_water", "indoor": "no"}}, {"type": "node", "id": 691562321, "lat": 41.383847, "lon": 2.1696311, "tags": {"amenity": "drinking_water"}}, {"type": "node", "id": 794425075, "lat": 41.3964191, "lon": 2.1872583, "tags": {"amenity": "drinking_water"}}, {"type": "node", "id": 840087503, "lat": 41.4439053, "lon": 2.1211657, "tags": {"amenity": "drinking_water", "name": "Font del Camp del Miracle"}}, {"type": "node", "id": 877668205, "lat": 41.3901811, "lon": 2.114285, "tags": {"amenity": "drinking_water"}}, {"type": "node", "id": 877668209, "lat": 41.3873811, "lon": 2.1231772, "tags": {"amenity": "drinking_water"}}, {"type": "node", "id": 907524767, "lat": 41.4049092, "lon": 2.1572061, "tags": {"amenity": "drinking_water", "name": "Fuente"}}, {"type": "node", "id": 907524814, "lat": 41.4076525, "lon": 2.1496436, "tags": {"amenity": "drinking_water"}}, {"type": "node", "id": 907524815, "lat": 41.4070861, "lon": 2.1494675, "tags": {"amenity": "drinking_water"}}, {"type": "node", "id": 938875522, "lat": 41.4462488, "lon": 2.1743751, "tags": {"amenity": "drinking_water"}}, {"type": "node", "id": 938876301, "lat": 41.4470329, "lon": 2.1802438, "tags": {"amenity": "drinking_water"}}, {"type": "node", "id": 955258187, "lat": 41.4422117, "lon": 2.1779215, "tags": {"amenity": "drinking_water"}}, {"type": "node", "id": 955258188, "lat": 41.4460398, "lon": 2.1789998, "tags": {"amenity": "drinking_water"}}, {"type": "node", "id": 966339776, "lat": 41.368005, "lon": 2.1301999, "tags": {"amenity": "drinking_water"}}, {"type": "node", "id": 966339789, "lat": 41.3653598, "lon": 2.1297401, "tags": {"amenity": "drinking_water"}}, {"type": "node", "id": 966339790, "lat": 41.3650442, "lon": 2.1274466, "tags": {"amenity": "drinking_water", "fee": "no"}}, {"type": "node", "id": 966339796, "lat": 41.3602843, "lon": 2.1238643, "tags": {"access": "yes", "amenity": "drinking_water", "covered": "no", "fee": "no", "indoor": "no", "operator": "Ajuntament de l'Hospitalet de Llobregat"}}, {"type": "node", "id": 966339798, "lat": 41.3598073, "lon": 2.1241574, "tags": {"access": "yes", "amenity": "drinking_water", "covered": "no", "fee": "no", "indoor": "no", "operator": "Ajuntament de l'Hospitalet de Llobregat"}}, {"type": "node", "id": 966339800, "lat": 41.3626124, "lon": 2.1299253, "tags": {"amenity": "drinking_water", "wheelchair": "yes"}}, {"type": "node", "id": 978060421, "lat": 41.3643468, "lon": 2.1230783, "tags": {"amenity": "drinking_water"}}, {"type": "node", "id": 981538827, "lat": 41.4212034, "lon": 2.1409279, "tags": {"amenity": "drinking_water"}}, {"type": "node", "id": 989001389, "lat": 41.4317045, "lon": 2.1260498, "tags": {"amenity": "drinking_water"}}, {"type": "node", "id": 1002753681, "lat": 41.4064389, "lon": 2.1498969, "tags": {"amenity": "drinking_water"}}, {"type": "node", "id": 1011403450, "lat": 41.4117526, "lon": 2.1452009, "tags": {"amenity": "drinking_water"}}, {"type": "node", "id": 1011403497, "lat": 41.4118113, "lon": 2.1469904, "tags": {"amenity": "drinking_water"}}, {"type": "node", "id": 1011403534, "lat": 41.4133087, "lon": 2.1416222, "tags": {"amenity": "drinking_water"}}, {"type": "node", "id": 1011403663, "lat": 41.4117719, "lon": 2.1443508, "tags": {"amenity": "drinking_water"}}, {"type": "node", "id": 1050141049, "lat": 41.4037342, "lon": 2.1608705, "tags": {"addr:city": "Barcelona", "addr:housenumber": "8", "addr:street": "Carrer de Montmany", "amenity": "drinking_water"}}, {"type": "node", "id": 1094585840, "lat": 41.4168989, "lon": 2.1213715, "tags": {"amenity": "drinking_water"}}, {"type": "node", "id": 1094585868, "lat": 41.4134833, "lon": 2.1187754, "tags": {"amenity": "drinking_water"}}, {"type": "node", "id": 1154463620, "lat": 41.4074591, "lon": 2.2138459, "tags": {"amenity": "drinking_water"}}, {"type": "node", "id": 1225051298, "lat": 41.410856, "lon": 2.131388, "tags": {"amenity": "drinking_water"}}, {"type": "node", "id": 1305698368, "lat": 41.3706837, "lon": 2.131068, "tags": {"amenity": "drinking_water", "wheelchair": "yes"}}, {"type": "node", "id": 1342175902, "lat": 41.4189755, "lon": 2.1377898, "tags": {"amenity": "drinking_water"}}, {"type": "node", "id": 1349448269, "lat": 41.3766689, "lon": 2.1671946, "tags": {"amenity": "drinking_water"}}, {"type": "node", "id": 1349448296, "lat": 41.3768002, "lon": 2.1650535, "tags": {"amenity": "drinking_water"}}, {"type": "node", "id": 1349449188, "lat": 41.3776922, "lon": 2.163322, "tags": {"amenity": "drinking_water"}}, {"type": "node", "id": 1357211194, "lat": 41.4045845, "lon": 2.1588547, "tags": {"amenity": "drinking_water"}}, {"type": "node", "id": 1357211207, "lat": 41.4035063, "lon": 2.1520078, "tags": {"amenity": "drinking_water"}}, {"type": "node", "id": 1357211250, "lat": 41.4036036, "lon": 2.1521601, "tags": {"amenity": "drinking_water"}}, {"type": "node", "id": 1365334562, "lat": 41.4192036, "lon": 2.1392366, "tags": {"amenity": "drinking_water"}}, {"type": "node", "id": 1365781190, "lat": 41.4267518, "lon": 2.1526054, "tags": {"amenity": "drinking_water"}}, {"type": "node", "id": 1365975399, "lat": 41.4261659, "lon": 2.1177043, "tags": {"amenity": "drinking_water"}}, {"type": "node", "id": 1374538567, "lat": 41.4250818, "lon": 2.1502193, "tags": {"amenity": "drinking_water"}}, {"type": "node", "id": 1377225827, "lat": 41.4025012, "lon": 2.1597535, "tags": {"amenity": "drinking_water", "check_date": "2021-08-21"}}, {"type": "node", "id": 1445371237, "lat": 41.4011945, "lon": 2.1608787, "tags": {"amenity": "drinking_water", "source": "survey", "source:date": "20110923"}}, {"type": "node", "id": 1457528118, "lat": 41.3689245, "lon": 2.1484217, "tags": {"amenity": "drinking_water"}}, {"type": "node", "id": 1457528119, "lat": 41.3689793, "lon": 2.1492985, "tags": {"amenity": "drinking_water"}}, {"type": "node", "id": 1457528121, "lat": 41.3691791, "lon": 2.1501488, "tags": {"amenity": "drinking_water"}}, {"type": "node", "id": 1465976934, "lat": 41.4322646, "lon": 2.18235, "tags": {"amenity": "drinking_water", "source": "knowledge"}}, {"type": "node", "id": 1479115393, "lat": 41.3877832, "lon": 2.1171213, "tags": {"amenity": "drinking_water", "architect": "Antoni Gaudi", "historic": "monument", "name": "Font d'H\u00e8rcules", "start_date": "1884", "wikidata": "Q18115979", "wikipedia": "ca:Font d'H\u00e8rcules (Gaud\u00ed)"}}, {"type": "node", "id": 1483279484, "lat": 41.4075562, "lon": 2.1582214, "tags": {"amenity": "drinking_water"}}, {"type": "node", "id": 1483916072, "lat": 41.3889981, "lon": 2.1205037, "tags": {"amenity": "drinking_water"}}, {"type": "node", "id": 1490671358, "lat": 41.4091714, "lon": 2.1434986, "tags": {"amenity": "drinking_water"}}, {"type": "node", "id": 1490671401, "lat": 41.4088978, "lon": 2.1429515, "tags": {"amenity": "drinking_water"}}, {"type": "node", "id": 1490682043, "lat": 41.4090326, "lon": 2.1426725, "tags": {"amenity": "drinking_water"}}, {"type": "node", "id": 1490682144, "lat": 41.4082317, "lon": 2.1421904, "tags": {"amenity": "drinking_water"}}, {"type": "node", "id": 1554649934, "lat": 41.4369762, "lon": 2.1569891, "tags": {"amenity": "drinking_water", "ref": "07-232"}}, {"type": "node", "id": 1597906317, "lat": 41.3821688, "lon": 2.188036, "tags": {"amenity": "drinking_water"}}, {"type": "node", "id": 1597906320, "lat": 41.3814946, "lon": 2.1876953, "tags": {"amenity": "drinking_water"}}, {"type": "node", "id": 1630693508, "lat": 41.3825446, "lon": 2.0738676, "tags": {"amenity": "drinking_water"}}, {"type": "node", "id": 1630693511, "lat": 41.384889, "lon": 2.0727225, "tags": {"amenity": "drinking_water"}}, {"type": "node", "id": 1630693512, "lat": 41.3855452, "lon": 2.0737822, "tags": {"amenity": "drinking_water"}}, {"type": "node", "id": 1631061396, "lat": 41.3785543, "lon": 2.0764314, "tags": {"amenity": "drinking_water", "name": "la font del ciclista"}}, {"type": "node", "id": 1705635723, "lat": 41.3765883, "lon": 2.131504, "tags": {"amenity": "drinking_water"}}, {"type": "node", "id": 1709790983, "lat": 41.4465257, "lon": 2.1726304, "tags": {"amenity": "drinking_water"}}, {"type": "node", "id": 1766512561, "lat": 41.4143586, "lon": 2.1990187, "tags": {"amenity": "drinking_water"}}, {"type": "node", "id": 1767358312, "lat": 41.4102669, "lon": 2.1974471, "tags": {"amenity": "drinking_water"}}, {"type": "node", "id": 1767358318, "lat": 41.4081989, "lon": 2.2020659, "tags": {"amenity": "drinking_water"}}, {"type": "node", "id": 1772840497, "lat": 41.4251754, "lon": 2.0896666, "tags": {"amenity": "drinking_water"}}, {"type": "node", "id": 1783286662, "lat": 41.4199757, "lon": 2.1023453, "tags": {"amenity": "drinking_water"}}, {"type": "node", "id": 1795148488, "lat": 41.3876144, "lon": 2.1899416, "tags": {"amenity": "drinking_water"}}, {"type": "node", "id": 1796462059, "lat": 41.4332262, "lon": 2.1747653, "tags": {"amenity": "drinking_water"}}, {"type": "node", "id": 1796462346, "lat": 41.4341191, "lon": 2.1757174, "tags": {"amenity": "drinking_water"}}, {"type": "node", "id": 1806585834, "lat": 41.3889668, "lon": 2.188942, "tags": {"amenity": "drinking_water"}}, {"type": "node", "id": 1860476049, "lat": 41.4031948, "lon": 2.1732405, "tags": {"amenity": "drinking_water"}}, {"type": "node", "id": 1860476057, "lat": 41.4045006, "lon": 2.17599, "tags": {"amenity": "drinking_water"}}, {"type": "node", "id": 1863376019, "lat": 41.4075473, "lon": 2.1712937, "tags": {"amenity": "drinking_water"}}, {"type": "node", "id": 1880427509, "lat": 41.3986477, "lon": 2.1242193, "tags": {"amenity": "drinking_water"}}, {"type": "node", "id": 1912571847, "lat": 41.3709837, "lon": 2.1706624, "tags": {"amenity": "drinking_water"}}, {"type": "node", "id": 1931991864, "lat": 41.4352129, "lon": 2.1761017, "tags": {"amenity": "drinking_water"}}, {"type": "node", "id": 1935827752, "lat": 41.4328754, "lon": 2.1422839, "tags": {"alt_name": "Font de Can Barret", "amenity": "drinking_water", "name": "Font del Barret", "wikidata": "Q11922371", "wikipedia": "ca:Font de can Barret"}}, {"type": "node", "id": 1935872517, "lat": 41.4246262, "lon": 2.1394768, "tags": {"amenity": "drinking_water"}}, {"type": "node", "id": 1938341158, "lat": 41.4215898, "lon": 2.1993595, "tags": {"amenity": "drinking_water"}}, {"type": "node", "id": 2020467637, "lat": 41.4422693, "lon": 2.1214893, "tags": {"amenity": "drinking_water"}}, {"type": "node", "id": 2086329643, "lat": 41.3915736, "lon": 2.1916251, "tags": {"amenity": "drinking_water"}}, {"type": "node", "id": 2140081491, "lat": 41.4219211, "lon": 2.1410782, "tags": {"amenity": "drinking_water"}}, {"type": "node", "id": 2149784282, "lat": 41.3971916, "lon": 2.1814517, "tags": {"amenity": "drinking_water"}}, {"type": "node", "id": 2192086281, "lat": 41.4155184, "lon": 2.1823319, "tags": {"amenity": "drinking_water"}}, {"type": "node", "id": 2262682197, "lat": 41.3953538, "lon": 2.2019184, "tags": {"amenity": "drinking_water"}}, {"type": "node", "id": 2279498549, "lat": 41.4091212, "lon": 2.2135443, "tags": {"amenity": "drinking_water"}}, {"type": "node", "id": 2279499594, "lat": 41.4068198, "lon": 2.2141826, "tags": {"amenity": "drinking_water"}}, {"type": "node", "id": 2279507904, "lat": 41.4075807, "lon": 2.211634, "tags": {"amenity": "drinking_water"}}, {"type": "node", "id": 2305380174, "lat": 41.4278705, "lon": 2.0893662, "tags": {"amenity": "drinking_water"}}, {"type": "node", "id": 2329771525, "lat": 41.4337395, "lon": 2.0939672, "tags": {"amenity": "drinking_water"}}, {"type": "node", "id": 2338184264, "lat": 41.4102542, "lon": 2.0997622, "tags": {"amenity": "drinking_water", "name": "Font de l'Espinagosa"}}, {"type": "node", "id": 2338184267, "lat": 41.4186354, "lon": 2.098144, "tags": {"amenity": "drinking_water"}}, {"type": "node", "id": 2339244270, "lat": 41.3958562, "lon": 2.125275, "tags": {"amenity": "drinking_water"}}, {"type": "node", "id": 2348076281, "lat": 41.3532915, "lon": 2.1546525, "tags": {"amenity": "drinking_water"}}, {"type": "node", "id": 2348076301, "lat": 41.3537971, "lon": 2.1555363, "tags": {"amenity": "drinking_water"}}, {"type": "node", "id": 2348076302, "lat": 41.3541111, "lon": 2.1563851, "tags": {"amenity": "drinking_water"}}, {"type": "node", "id": 2348076303, "lat": 41.354387, "lon": 2.1555409, "tags": {"amenity": "drinking_water"}}, {"type": "node", "id": 2348083166, "lat": 41.3538221, "lon": 2.1549612, "tags": {"amenity": "drinking_water"}}, {"type": "node", "id": 2348096421, "lat": 41.3544469, "lon": 2.1565987, "tags": {"amenity": "drinking_water"}}, {"type": "node", "id": 2348096444, "lat": 41.3548796, "lon": 2.1566368, "tags": {"amenity": "drinking_water"}}, {"type": "node", "id": 2348106705, "lat": 41.3546683, "lon": 2.1556126, "tags": {"amenity": "drinking_water"}}, {"type": "node", "id": 2348235939, "lat": 41.3551164, "lon": 2.1560756, "tags": {"amenity": "drinking_water"}}, {"type": "node", "id": 2348235941, "lat": 41.3552548, "lon": 2.1550502, "tags": {"amenity": "drinking_water"}}, {"type": "node", "id": 2348235942, "lat": 41.3552838, "lon": 2.1546689, "tags": {"amenity": "drinking_water"}}, {"type": "node", "id": 2348235944, "lat": 41.355329, "lon": 2.152965, "tags": {"amenity": "drinking_water"}}, {"type": "node", "id": 2348235953, "lat": 41.3554139, "lon": 2.1545141, "tags": {"amenity": "drinking_water"}}, {"type": "node", "id": 2348235979, "lat": 41.3555285, "lon": 2.1552181, "tags": {"amenity": "drinking_water"}}, {"type": "node", "id": 2348235991, "lat": 41.355656, "lon": 2.1554972, "tags": {"amenity": "drinking_water"}}, {"type": "node", "id": 2348235995, "lat": 41.3557028, "lon": 2.1551312, "tags": {"amenity": "drinking_water"}}, {"type": "node", "id": 2348235999, "lat": 41.3558922, "lon": 2.1550061, "tags": {"amenity": "drinking_water"}}, {"type": "node", "id": 2348245391, "lat": 41.3546098, "lon": 2.1539364, "tags": {"amenity": "drinking_water"}}, {"type": "node", "id": 2348245398, "lat": 41.3548158, "lon": 2.153759, "tags": {"amenity": "drinking_water"}}, {"type": "node", "id": 2348245401, "lat": 41.3548578, "lon": 2.15371, "tags": {"amenity": "drinking_water"}}, {"type": "node", "id": 2348251992, "lat": 41.353543, "lon": 2.1535023, "tags": {"amenity": "drinking_water"}}, {"type": "node", "id": 2348252010, "lat": 41.3543868, "lon": 2.154133, "tags": {"amenity": "drinking_water"}}, {"type": "node", "id": 2351682195, "lat": 41.38181, "lon": 2.129444, "tags": {"amenity": "drinking_water", "source": "wetap.org", "wetap:status": "working"}}, {"type": "node", "id": 2351682198, "lat": 41.381985, "lon": 2.130016, "tags": {"amenity": "drinking_water", "source": "wetap.org", "wetap:status": "working"}}, {"type": "node", "id": 2351682199, "lat": 41.3850673, "lon": 2.1344343, "tags": {"amenity": "drinking_water", "source": "wetap.org", "wetap:status": "working"}}, {"type": "node", "id": 2351682202, "lat": 41.384987, "lon": 2.135719, "tags": {"amenity": "drinking_water", "source": "wetap.org", "wetap:status": "working"}}, {"type": "node", "id": 2362874249, "lat": 41.4339998, "lon": 2.188902, "tags": {"amenity": "drinking_water"}}, {"type": "node", "id": 2408242418, "lat": 41.4063882, "lon": 2.0715754, "tags": {"access": "yes", "amenity": "drinking_water", "bottle": "yes", "fee": "no", "name": "Font de Santa Margarida", "website": "http://fontscollserola.com/?p=794"}}, {"type": "node", "id": 2408246681, "lat": 41.4129175, "lon": 2.1043391, "tags": {"amenity": "drinking_water"}}, {"type": "node", "id": 2408257620, "lat": 41.4064442, "lon": 2.1336541, "tags": {"amenity": "drinking_water"}}, {"type": "node", "id": 2434363989, "lat": 41.3697665, "lon": 2.1722787, "tags": {"amenity": "drinking_water", "toilets:wheelchair": "yes", "wheelchair": "yes"}}, {"type": "node", "id": 2434370651, "lat": 41.3628537, "lon": 2.1657188, "tags": {"amenity": "drinking_water"}}, {"type": "node", "id": 2438033094, "lat": 41.3836621, "lon": 2.1831793, "tags": {"amenity": "drinking_water"}}, {"type": "node", "id": 2439284955, "lat": 41.3784242, "lon": 2.1786894, "tags": {"amenity": "drinking_water"}}, {"type": "node", "id": 2440200926, "lat": 41.376744, "lon": 2.173705, "tags": {"amenity": "drinking_water"}}, {"type": "node", "id": 2443291343, "lat": 41.3813491, "lon": 2.1813601, "tags": {"amenity": "drinking_water"}}, {"type": "node", "id": 2447265478, "lat": 41.3898925, "lon": 2.1001182, "tags": {"amenity": "drinking_water"}}, {"type": "node", "id": 2450881215, "lat": 41.3939161, "lon": 2.0933272, "tags": {"amenity": "drinking_water"}}, {"type": "node", "id": 2460915682, "lat": 41.3816609, "lon": 2.178692, "tags": {"amenity": "drinking_water"}}, {"type": "node", "id": 2460939126, "lat": 41.3718501, "lon": 2.1695224, "tags": {"amenity": "drinking_water"}}, {"type": "node", "id": 2476762469, "lat": 41.409811, "lon": 2.2219931, "tags": {"amenity": "drinking_water"}}, {"type": "node", "id": 2477391451, "lat": 41.375687, "lon": 2.101251, "tags": {"amenity": "drinking_water", "source": "wetap.org", "wetap:credit": "jconstanti", "wetap:status": "working"}}, {"type": "node", "id": 2479812318, "lat": 41.4089953, "lon": 2.2218707, "tags": {"amenity": "drinking_water"}}, {"type": "node", "id": 2480382421, "lat": 41.3761243, "lon": 2.1020231, "tags": {"amenity": "drinking_water"}}, {"type": "node", "id": 2486095565, "lat": 41.3877791, "lon": 2.1870124, "tags": {"amenity": "drinking_water"}}, {"type": "node", "id": 2486315786, "lat": 41.3866239, "lon": 2.1185448, "tags": {"amenity": "drinking_water"}}, {"type": "node", "id": 2486318401, "lat": 41.3869777, "lon": 2.1124042, "tags": {"amenity": "drinking_water"}}, {"type": "node", "id": 2489017535, "lat": 41.3732405, "lon": 2.1005904, "tags": {"amenity": "drinking_water"}}, {"type": "node", "id": 2489332386, "lat": 41.3606881, "lon": 2.1084101, "tags": {"amenity": "drinking_water"}}, {"type": "node", "id": 2489332391, "lat": 41.3615135, "lon": 2.1092926, "tags": {"amenity": "drinking_water"}}, {"type": "node", "id": 2491103574, "lat": 41.391687, "lon": 2.1229277, "tags": {"amenity": "drinking_water"}}, {"type": "node", "id": 2491103575, "lat": 41.3929044, "lon": 2.1236707, "tags": {"amenity": "drinking_water"}}, {"type": "node", "id": 2491103576, "lat": 41.3904084, "lon": 2.1206585, "tags": {"amenity": "drinking_water"}}, {"type": "node", "id": 2491103577, "lat": 41.3921679, "lon": 2.1238155, "tags": {"amenity": "drinking_water"}}, {"type": "node", "id": 2493101521, "lat": 41.4111542, "lon": 2.1439423, "tags": {"amenity": "drinking_water"}}, {"type": "node", "id": 2498788243, "lat": 41.3774003, "lon": 2.148922, "tags": {"amenity": "drinking_water"}}, {"type": "node", "id": 2500001149, "lat": 41.3900376, "lon": 2.1872064, "tags": {"amenity": "drinking_water"}}, {"type": "node", "id": 2509819987, "lat": 41.3675027, "lon": 2.1636631, "tags": {"amenity": "drinking_water"}}, {"type": "node", "id": 2509820240, "lat": 41.3679132, "lon": 2.1644023, "tags": {"amenity": "drinking_water", "wheelchair": "yes"}}, {"type": "node", "id": 2513889988, "lat": 41.3927629, "lon": 2.1223082, "tags": {"amenity": "drinking_water"}}, {"type": "node", "id": 2515061647, "lat": 41.3775397, "lon": 2.1164394, "tags": {"amenity": "drinking_water"}}, {"type": "node", "id": 2519684216, "lat": 41.3674398, "lon": 2.1234649, "tags": {"access": "yes", "amenity": "drinking_water", "covered": "no", "fee": "no", "indoor": "no", "operator": "Ajuntament de l'Hospitalet de Llobregat"}}, {"type": "node", "id": 2521865351, "lat": 41.3745175, "lon": 2.1196512, "tags": {"amenity": "drinking_water"}}, {"type": "node", "id": 2522141796, "lat": 41.3780291, "lon": 2.1185547, "tags": {"amenity": "drinking_water"}}, {"type": "node", "id": 2530379530, "lat": 41.3844438, "lon": 2.1238034, "tags": {"amenity": "drinking_water"}}, {"type": "node", "id": 2540150077, "lat": 41.4006616, "lon": 2.1189398, "tags": {"amenity": "drinking_water"}}, {"type": "node", "id": 2560079100, "lat": 41.3805466, "lon": 2.1407895, "tags": {"amenity": "drinking_water"}}, {"type": "node", "id": 2560389415, "lat": 41.3670591, "lon": 2.152485, "tags": {"amenity": "drinking_water"}}, {"type": "node", "id": 2565663265, "lat": 41.3847682, "lon": 2.1762935, "tags": {"amenity": "drinking_water", "source": "survey"}}, {"type": "node", "id": 2573544620, "lat": 41.4141622, "lon": 2.1548221, "tags": {"amenity": "drinking_water"}}, {"type": "node", "id": 2595873463, "lat": 41.4043012, "lon": 2.2039043, "tags": {"amenity": "drinking_water"}}, {"type": "node", "id": 2598482846, "lat": 41.3879185, "lon": 2.1805863, "tags": {"amenity": "drinking_water"}}, {"type": "node", "id": 2598482953, "lat": 41.3772584, "lon": 2.1879587, "tags": {"amenity": "drinking_water"}}, {"type": "node", "id": 2606686478, "lat": 41.4395782, "lon": 2.1740039, "tags": {"amenity": "drinking_water"}}, {"type": "node", "id": 2606686481, "lat": 41.4405657, "lon": 2.1723679, "tags": {"amenity": "drinking_water"}}, {"type": "node", "id": 2606686486, "lat": 41.4412109, "lon": 2.172188, "tags": {"amenity": "drinking_water"}}, {"type": "node", "id": 2610605651, "lat": 41.3982214, "lon": 2.1246386, "tags": {"amenity": "drinking_water"}}, {"type": "node", "id": 2611376401, "lat": 41.3995779, "lon": 2.109011, "tags": {"amenity": "drinking_water"}}, {"type": "node", "id": 2624465003, "lat": 41.3967909, "lon": 2.1209191, "tags": {"amenity": "drinking_water"}}, {"type": "node", "id": 2624465007, "lat": 41.3968178, "lon": 2.1199558, "tags": {"amenity": "drinking_water"}}, {"type": "node", "id": 2627845565, "lat": 41.4156303, "lon": 2.1878998, "tags": {"amenity": "drinking_water"}}, {"type": "node", "id": 2627845569, "lat": 41.4175876, "lon": 2.186338, "tags": {"amenity": "drinking_water"}}, {"type": "node", "id": 2627845574, "lat": 41.4178436, "lon": 2.1860218, "tags": {"amenity": "drinking_water"}}, {"type": "node", "id": 2629638146, "lat": 41.3644774, "lon": 2.1433544, "tags": {"amenity": "drinking_water"}}, {"type": "node", "id": 2636736660, "lat": 41.3979449, "lon": 2.1130441, "tags": {"amenity": "drinking_water"}}, {"type": "node", "id": 2636927530, "lat": 41.397669, "lon": 2.1124008, "tags": {"amenity": "drinking_water"}}, {"type": "node", "id": 2636927599, "lat": 41.3994443, "lon": 2.1119161, "tags": {"amenity": "drinking_water"}}, {"type": "node", "id": 2636927618, "lat": 41.4006853, "lon": 2.1082856, "tags": {"amenity": "drinking_water"}}, {"type": "node", "id": 2655757005, "lat": 41.4207117, "lon": 2.1588423, "tags": {"access": "yes", "amenity": "drinking_water", "covered": "no", "fee": "no", "indoor": "no", "operator": "Ajuntament de Barcelona"}}, {"type": "node", "id": 2671630209, "lat": 41.403125, "lon": 2.1148381, "tags": {"amenity": "drinking_water"}}, {"type": "node", "id": 2682207960, "lat": 41.4039579, "lon": 2.1173277, "tags": {"amenity": "drinking_water"}}, {"type": "node", "id": 2682341322, "lat": 41.3997953, "lon": 2.1216694, "tags": {"amenity": "drinking_water"}}, {"type": "node", "id": 2682341323, "lat": 41.4031645, "lon": 2.1228181, "tags": {"amenity": "drinking_water"}}, {"type": "node", "id": 2682532987, "lat": 41.4013547, "lon": 2.1668637, "tags": {"amenity": "drinking_water", "artist_name": "Josep Tenas", "name": "Font de la Caputxeta", "source": "http://w10.bcn.es/APPS/gmocataleg_monum/FitxaMonumentAc.do?idioma=CA&codiMonumIntern=412", "tourism": "artwork"}}, {"type": "node", "id": 2683365364, "lat": 41.3828971, "lon": 2.1784807, "tags": {"amenity": "drinking_water", "name": "Font de Sant Just", "wikidata": "Q11922366", "wikipedia": "ca:Font de Sant Just"}}, {"type": "node", "id": 2684159670, "lat": 41.4423397, "lon": 2.183382, "tags": {"amenity": "drinking_water"}}, {"type": "node", "id": 2686532051, "lat": 41.439446, "lon": 2.1810435, "tags": {"amenity": "drinking_water"}}, {"type": "node", "id": 2694671127, "lat": 41.3983856, "lon": 2.1214883, "tags": {"amenity": "drinking_water"}}, {"type": "node", "id": 2694842106, "lat": 41.4107658, "lon": 2.1356998, "tags": {"amenity": "drinking_water"}}, {"type": "node", "id": 2706885456, "lat": 41.4365234, "lon": 2.1706225, "tags": {"amenity": "drinking_water"}}, {"type": "node", "id": 2706885457, "lat": 41.4367707, "lon": 2.1718671, "tags": {"amenity": "drinking_water"}}, {"type": "node", "id": 2709617220, "lat": 41.3776456, "lon": 2.0946199, "tags": {"amenity": "drinking_water"}}, {"type": "node", "id": 2742735084, "lat": 41.4016135, "lon": 2.1199919, "tags": {"amenity": "drinking_water"}}, {"type": "node", "id": 2775765415, "lat": 41.4116829, "lon": 2.1944617, "tags": {"amenity": "drinking_water"}}, {"type": "node", "id": 2775765422, "lat": 41.4116441, "lon": 2.1950517, "tags": {"amenity": "drinking_water", "note": "font"}}, {"type": "node", "id": 2781788386, "lat": 41.4021625, "lon": 2.1970642, "tags": {"amenity": "drinking_water"}}, {"type": "node", "id": 2784254520, "lat": 41.380516, "lon": 2.1514339, "tags": {"amenity": "drinking_water", "cmt": "AERCLE OR 1991 FONT", "ele": "27.999653", "image": "https://europeanwaterproject.org/photos/2020/EWP2784254520.jpg", "name": "Font del Cercle d'Or", "sym": "Flag, Blue", "time": "2014-04-11T12:13:43Z", "year": "1991"}}, {"type": "node", "id": 2817328815, "lat": 41.3998682, "lon": 2.1200854, "tags": {"amenity": "drinking_water"}}, {"type": "node", "id": 2817617719, "lat": 41.3842835, "lon": 2.104416, "tags": {"amenity": "drinking_water"}}, {"type": "node", "id": 2817617731, "lat": 41.3829269, "lon": 2.1040582, "tags": {"amenity": "drinking_water"}}, {"type": "node", "id": 2817617732, "lat": 41.384807, "lon": 2.1043652, "tags": {"amenity": "drinking_water"}}, {"type": "node", "id": 2825828481, "lat": 41.3594844, "lon": 2.1410942, "tags": {"amenity": "drinking_water"}}, {"type": "node", "id": 2825831391, "lat": 41.3604947, "lon": 2.1397558, "tags": {"amenity": "drinking_water"}}, {"type": "node", "id": 2825834387, "lat": 41.3596865, "lon": 2.1418085, "tags": {"amenity": "drinking_water"}}, {"type": "node", "id": 2828346815, "lat": 41.3798471, "lon": 2.0866469, "tags": {"amenity": "drinking_water"}}, {"type": "node", "id": 2860633265, "lat": 41.3712746, "lon": 2.1511613, "tags": {"amenity": "drinking_water"}}, {"type": "node", "id": 2874908166, "lat": 41.3711835, "lon": 2.1042614, "tags": {"amenity": "drinking_water"}}, {"type": "node", "id": 2902556549, "lat": 41.4267023, "lon": 2.1368983, "tags": {"amenity": "drinking_water"}}, {"type": "node", "id": 2907109776, "lat": 41.3313644, "lon": 2.1064427, "tags": {"amenity": "drinking_water"}}, {"type": "node", "id": 2944058302, "lat": 41.4198792, "lon": 2.1006876, "tags": {"amenity": "drinking_water"}}, {"type": "node", "id": 2945833376, "lat": 41.4113492, "lon": 2.1677899, "tags": {"amenity": "drinking_water"}}, {"type": "node", "id": 2956932676, "lat": 41.434654, "lon": 2.2019175, "tags": {"amenity": "drinking_water"}}, {"type": "node", "id": 2956932677, "lat": 41.4360912, "lon": 2.2051688, "tags": {"amenity": "drinking_water"}}, {"type": "node", "id": 2956932684, "lat": 41.4375391, "lon": 2.2058494, "tags": {"amenity": "drinking_water"}}, {"type": "node", "id": 2962689670, "lat": 41.3609337, "lon": 2.1015026, "tags": {"amenity": "drinking_water"}}, {"type": "node", "id": 2964058469, "lat": 41.3897406, "lon": 2.1570732, "tags": {"amenity": "drinking_water", "fee": "no"}}, {"type": "node", "id": 2965670787, "lat": 41.4340971, "lon": 2.206336, "tags": {"amenity": "drinking_water"}}, {"type": "node", "id": 2975323025, "lat": 41.4358599, "lon": 2.2038979, "tags": {"amenity": "drinking_water"}}, {"type": "node", "id": 2975915053, "lat": 41.4005365, "lon": 2.1973069, "tags": {"amenity": "drinking_water"}}, {"type": "node", "id": 2987478693, "lat": 41.4352896, "lon": 2.2043101, "tags": {"amenity": "drinking_water"}}, {"type": "node", "id": 2994645751, "lat": 41.3637408, "lon": 2.1038982, "tags": {"amenity": "drinking_water"}}, {"type": "node", "id": 2996266858, "lat": 41.3956453, "lon": 2.114143, "tags": {"amenity": "drinking_water"}}, {"type": "node", "id": 2996270912, "lat": 41.3952241, "lon": 2.1155719, "tags": {"amenity": "drinking_water"}}, {"type": "node", "id": 3005203737, "lat": 41.3995513, "lon": 2.2049549, "tags": {"amenity": "drinking_water"}}, {"type": "node", "id": 3005325656, "lat": 41.4150966, "lon": 2.1967617, "tags": {"amenity": "drinking_water", "indoor": "no"}}, {"type": "node", "id": 3005328266, "lat": 41.3737199, "lon": 2.0914152, "tags": {"amenity": "drinking_water"}}, {"type": "node", "id": 3005466551, "lat": 41.4158988, "lon": 2.1598501, "tags": {"amenity": "drinking_water"}}, {"type": "node", "id": 3005856818, "lat": 41.4055449, "lon": 2.162521, "tags": {"amenity": "drinking_water"}}, {"type": "node", "id": 3006333199, "lat": 41.4194495, "lon": 2.1638588, "tags": {"amenity": "drinking_water"}}, {"type": "node", "id": 3006383875, "lat": 41.4144149, "lon": 2.163022, "tags": {"amenity": "drinking_water"}}, {"type": "node", "id": 3006513212, "lat": 41.4070788, "lon": 2.1555158, "tags": {"amenity": "drinking_water"}}, {"type": "node", "id": 3006519987, "lat": 41.4078161, "lon": 2.1539574, "tags": {"amenity": "drinking_water"}}, {"type": "node", "id": 3007465891, "lat": 41.4133707, "lon": 2.1544608, "tags": {"amenity": "drinking_water"}}, {"type": "node", "id": 3008990618, "lat": 41.3854526, "lon": 2.1331234, "tags": {"amenity": "drinking_water"}}, {"type": "node", "id": 3009143633, "lat": 41.4246579, "lon": 2.1771864, "tags": {"amenity": "drinking_water"}}, {"type": "node", "id": 3009149116, "lat": 41.4186541, "lon": 2.1889687, "tags": {"amenity": "drinking_water"}}, {"type": "node", "id": 3009158870, "lat": 41.4075758, "lon": 2.220688, "tags": {"amenity": "drinking_water"}}, {"type": "node", "id": 3009167637, "lat": 41.3896542, "lon": 2.2005315, "tags": {"amenity": "drinking_water"}}, {"type": "node", "id": 3009168625, "lat": 41.3956051, "lon": 2.2077858, "tags": {"amenity": "drinking_water"}}, {"type": "node", "id": 3009178675, "lat": 41.3755402, "lon": 2.1892013, "tags": {"amenity": "drinking_water", "name": "Carrer de la Drassana"}}, {"type": "node", "id": 3009193745, "lat": 41.4220514, "lon": 2.1830277, "tags": {"amenity": "drinking_water"}}, {"type": "node", "id": 3009196479, "lat": 41.4200158, "lon": 2.1811316, "tags": {"amenity": "drinking_water"}}, {"type": "node", "id": 3009199462, "lat": 41.4221477, "lon": 2.1848957, "tags": {"amenity": "drinking_water"}}, {"type": "node", "id": 3009213534, "lat": 41.4272047, "lon": 2.1821907, "tags": {"amenity": "drinking_water"}}, {"type": "node", "id": 3009246866, "lat": 41.412256, "lon": 2.1885127, "tags": {"amenity": "drinking_water", "toilets:wheelchair": "no", "wheelchair": "yes"}}, {"type": "node", "id": 3009252891, "lat": 41.4075642, "lon": 2.1897224, "tags": {"amenity": "drinking_water", "toilets:wheelchair": "no", "wheelchair": "yes"}}, {"type": "node", "id": 3010463498, "lat": 41.4166027, "lon": 2.1806849, "tags": {"amenity": "drinking_water"}}, {"type": "node", "id": 3013718456, "lat": 41.4407578, "lon": 2.1632766, "tags": {"amenity": "drinking_water"}}, {"type": "node", "id": 3027824134, "lat": 41.4089735, "lon": 2.1934132, "tags": {"amenity": "drinking_water", "indoor": "no"}}, {"type": "node", "id": 3027824533, "lat": 41.4092246, "lon": 2.1939804, "tags": {"amenity": "drinking_water", "indoor": "no"}}, {"type": "node", "id": 3027824633, "lat": 41.41022, "lon": 2.1953043, "tags": {"amenity": "drinking_water", "indoor": "no"}}, {"type": "node", "id": 3029829933, "lat": 41.3971863, "lon": 2.1905484, "tags": {"amenity": "drinking_water", "indoor": "no"}}, {"type": "node", "id": 3032894936, "lat": 41.4134973, "lon": 2.1969781, "tags": {"amenity": "drinking_water", "indoor": "no"}}, {"type": "node", "id": 3040074333, "lat": 41.4174757, "lon": 2.1938233, "tags": {"amenity": "drinking_water", "indoor": "no"}}, {"type": "node", "id": 3040074335, "lat": 41.4215947, "lon": 2.196732, "tags": {"amenity": "drinking_water", "indoor": "no"}}, {"type": "node", "id": 3040074433, "lat": 41.4177606, "lon": 2.1945376, "tags": {"amenity": "drinking_water", "indoor": "no"}}, {"type": "node", "id": 3040074733, "lat": 41.4197055, "lon": 2.1973293, "tags": {"amenity": "drinking_water", "indoor": "no"}}, {"type": "node", "id": 3040074833, "lat": 41.4202503, "lon": 2.198028, "tags": {"amenity": "drinking_water", "indoor": "no"}}, {"type": "node", "id": 3040075133, "lat": 41.4213497, "lon": 2.1980259, "tags": {"amenity": "drinking_water", "indoor": "no"}}, {"type": "node", "id": 3041229581, "lat": 41.4294587, "lon": 2.1745044, "tags": {"amenity": "drinking_water"}}, {"type": "node", "id": 3042724833, "lat": 41.40318, "lon": 2.188802, "tags": {"amenity": "drinking_water"}}, {"type": "node", "id": 3044245634, "lat": 41.4044538, "lon": 2.1989088, "tags": {"amenity": "drinking_water", "indoor": "no"}}, {"type": "node", "id": 3044251442, "lat": 41.4166259, "lon": 2.2021025, "tags": {"amenity": "drinking_water", "indoor": "no"}}, {"type": "node", "id": 3044253736, "lat": 41.4080718, "lon": 2.2046692, "tags": {"amenity": "drinking_water", "indoor": "no"}}, {"type": "node", "id": 3044253742, "lat": 41.4134682, "lon": 2.2056675, "tags": {"amenity": "drinking_water", "indoor": "no"}}, {"type": "node", "id": 3044256135, "lat": 41.4112431, "lon": 2.2041401, "tags": {"amenity": "drinking_water", "indoor": "no"}}, {"type": "node", "id": 3046154937, "lat": 41.4119887, "lon": 2.2006239, "tags": {"amenity": "drinking_water", "check_date": "2021-08-20", "indoor": "no"}}, {"type": "node", "id": 3046155133, "lat": 41.4072958, "lon": 2.1941457, "tags": {"amenity": "drinking_water", "indoor": "no", "toilets:wheelchair": "no", "wheelchair": "yes"}}, {"type": "node", "id": 3046156738, "lat": 41.4140319, "lon": 2.2003939, "tags": {"amenity": "drinking_water", "indoor": "no"}}, {"type": "node", "id": 3048076837, "lat": 41.4039869, "lon": 2.2016892, "tags": {"amenity": "drinking_water", "indoor": "no"}}, {"type": "node", "id": 3048078141, "lat": 41.3998375, "lon": 2.20262, "tags": {"amenity": "drinking_water", "indoor": "no"}}, {"type": "node", "id": 3048078239, "lat": 41.398785, "lon": 2.2040143, "tags": {"amenity": "drinking_water", "indoor": "no"}}, {"type": "node", "id": 3048078240, "lat": 41.3994211, "lon": 2.2067758, "tags": {"amenity": "drinking_water"}}, {"type": "node", "id": 3048078444, "lat": 41.4007599, "lon": 2.2049863, "tags": {"amenity": "drinking_water", "indoor": "no"}}, {"type": "node", "id": 3049368343, "lat": 41.4077541, "lon": 2.1890062, "tags": {"amenity": "drinking_water", "indoor": "no"}}, {"type": "node", "id": 3049372239, "lat": 41.4088319, "lon": 2.1897951, "tags": {"amenity": "drinking_water", "indoor": "no"}}, {"type": "node", "id": 3049395237, "lat": 41.4097932, "lon": 2.190366, "tags": {"amenity": "drinking_water", "indoor": "no"}}, {"type": "node", "id": 3049395453, "lat": 41.4142494, "lon": 2.191368, "tags": {"amenity": "drinking_water", "indoor": "no"}}, {"type": "node", "id": 3050973434, "lat": 41.3961865, "lon": 2.2076297, "tags": {"amenity": "drinking_water"}}, {"type": "node", "id": 3050973435, "lat": 41.396774, "lon": 2.2068757, "tags": {"amenity": "drinking_water"}}, {"type": "node", "id": 3050973436, "lat": 41.3950658, "lon": 2.2071069, "tags": {"amenity": "drinking_water"}}, {"type": "node", "id": 3050973443, "lat": 41.3930246, "lon": 2.2052617, "tags": {"amenity": "drinking_water"}}, {"type": "node", "id": 3050973449, "lat": 41.3912337, "lon": 2.2030194, "tags": {"amenity": "drinking_water"}}, {"type": "node", "id": 3050973450, "lat": 41.3907508, "lon": 2.2016917, "tags": {"amenity": "drinking_water"}}, {"type": "node", "id": 3053160933, "lat": 41.403336, "lon": 2.195398, "tags": {"amenity": "drinking_water"}}, {"type": "node", "id": 3056861384, "lat": 41.3989285, "lon": 2.19744, "tags": {"amenity": "drinking_water"}}, {"type": "node", "id": 3056861385, "lat": 41.3969227, "lon": 2.1930112, "tags": {"amenity": "drinking_water"}}, {"type": "node", "id": 3058163665, "lat": 41.4007289, "lon": 2.2015169, "tags": {"amenity": "drinking_water"}}, {"type": "node", "id": 3058163667, "lat": 41.3915539, "lon": 2.1926442, "tags": {"amenity": "drinking_water"}}, {"type": "node", "id": 3058163668, "lat": 41.3913985, "lon": 2.1870575, "tags": {"amenity": "drinking_water", "check_date": "2021-08-15"}}, {"type": "node", "id": 3058703729, "lat": 41.4056189, "lon": 2.2118804, "tags": {"amenity": "drinking_water"}}, {"type": "node", "id": 3068367481, "lat": 41.4021533, "lon": 2.2014842, "tags": {"amenity": "drinking_water"}}, {"type": "node", "id": 3068367482, "lat": 41.4040793, "lon": 2.2100604, "tags": {"amenity": "drinking_water"}}, {"type": "node", "id": 3068367483, "lat": 41.4073467, "lon": 2.1871595, "tags": {"amenity": "drinking_water"}}, {"type": "node", "id": 3068367484, "lat": 41.409715, "lon": 2.1877966, "tags": {"amenity": "drinking_water"}}, {"type": "node", "id": 3068367485, "lat": 41.412578, "lon": 2.2170909, "tags": {"amenity": "drinking_water"}}, {"type": "node", "id": 3068367486, "lat": 41.412912, "lon": 2.2171434, "tags": {"amenity": "drinking_water"}}, {"type": "node", "id": 3068367487, "lat": 41.4132813, "lon": 2.2167389, "tags": {"amenity": "drinking_water"}}, {"type": "node", "id": 3068367488, "lat": 41.4140883, "lon": 2.2156715, "tags": {"amenity": "drinking_water"}}, {"type": "node", "id": 3068367489, "lat": 41.4144935, "lon": 2.2151225, "tags": {"amenity": "drinking_water"}}, {"type": "node", "id": 3068367490, "lat": 41.4152441, "lon": 2.2142477, "tags": {"amenity": "drinking_water"}}, {"type": "node", "id": 3068367491, "lat": 41.4156511, "lon": 2.2140952, "tags": {"amenity": "drinking_water"}}, {"type": "node", "id": 3068367492, "lat": 41.4165747, "lon": 2.2122715, "tags": {"amenity": "drinking_water"}}, {"type": "node", "id": 3068367493, "lat": 41.4172374, "lon": 2.2113279, "tags": {"amenity": "drinking_water"}}, {"type": "node", "id": 3072185838, "lat": 41.3984608, "lon": 2.1468243, "tags": {"amenity": "drinking_water"}}, {"type": "node", "id": 3074770052, "lat": 41.3810432, "lon": 2.1620545, "tags": {"amenity": "drinking_water"}}, {"type": "node", "id": 3074775711, "lat": 41.3816338, "lon": 2.1637202, "tags": {"amenity": "drinking_water"}}, {"type": "node", "id": 3074775712, "lat": 41.3926874, "lon": 2.1813097, "tags": {"amenity": "drinking_water"}}, {"type": "node", "id": 3077991509, "lat": 41.389365, "lon": 2.1130274, "tags": {"amenity": "drinking_water"}}, {"type": "node", "id": 3096906059, "lat": 41.3794742, "lon": 2.1659617, "tags": {"amenity": "drinking_water", "memorial": "statue;obelisk", "name": "Font de Santa Eul\u00e0lia", "start_date": "1673", "wikidata": "Q16013785", "wikipedia": "ca:Font de Santa Eul\u00e0lia"}}, {"type": "node", "id": 3097574182, "lat": 41.4011547, "lon": 2.2076297, "tags": {"amenity": "drinking_water"}}, {"type": "node", "id": 3097591695, "lat": 41.4042843, "lon": 2.2139884, "tags": {"amenity": "drinking_water"}}, {"type": "node", "id": 3097603005, "lat": 41.4041949, "lon": 2.2120599, "tags": {"amenity": "drinking_water"}}, {"type": "node", "id": 3097608934, "lat": 41.4037281, "lon": 2.2128967, "tags": {"amenity": "drinking_water"}}, {"type": "node", "id": 3100678763, "lat": 41.4033193, "lon": 2.1459379, "tags": {"amenity": "drinking_water"}}, {"type": "node", "id": 3103631844, "lat": 41.4306994, "lon": 2.159104, "tags": {"amenity": "drinking_water"}}, {"type": "node", "id": 3105288529, "lat": 41.400931, "lon": 2.1947983, "tags": {"amenity": "drinking_water", "indoor": "no"}}, {"type": "node", "id": 3106268455, "lat": 41.389847, "lon": 2.1685652, "tags": {"amenity": "drinking_water"}}, {"type": "node", "id": 3109086256, "lat": 41.4004843, "lon": 2.1623136, "tags": {"amenity": "drinking_water"}}, {"type": "node", "id": 3109086257, "lat": 41.3992006, "lon": 2.1605737, "tags": {"amenity": "drinking_water"}}, {"type": "node", "id": 3114962597, "lat": 41.3910768, "lon": 2.1364081, "tags": {"amenity": "drinking_water"}}, {"type": "node", "id": 3114962602, "lat": 41.4246394, "lon": 2.1899579, "tags": {"amenity": "drinking_water"}}, {"type": "node", "id": 3114962603, "lat": 41.4240705, "lon": 2.1888368, "tags": {"amenity": "drinking_water"}}, {"type": "node", "id": 3115308107, "lat": 41.3922934, "lon": 2.1540257, "tags": {"amenity": "drinking_water", "indoor": "no"}}, {"type": "node", "id": 3115724966, "lat": 41.394005, "lon": 2.1563106, "tags": {"amenity": "drinking_water", "description": "Fuente de agua potable", "indoor": "no"}}, {"type": "node", "id": 3115728745, "lat": 41.3956295, "lon": 2.1588421, "tags": {"amenity": "drinking_water", "description": "Fuente de agua potable", "indoor": "no"}}, {"type": "node", "id": 3116187206, "lat": 41.396859, "lon": 2.1619014, "tags": {"amenity": "drinking_water", "check_date": "2021-08-20", "description": "Font d'aigua potable", "indoor": "no"}}, {"type": "node", "id": 3116195070, "lat": 41.3985622, "lon": 2.1686384, "tags": {"amenity": "drinking_water", "artist_name": "\u00c0ngel Tarrach", "artwork_type": "statue", "indoor": "no", "name": "Font de l'Efeb", "source": "http://w10.bcn.es/APPS/gmocataleg_monum/FitxaMonumentAc.do?idioma=CA&codiMonumIntern=405", "tourism": "artwork"}}, {"type": "node", "id": 3116199233, "lat": 41.3977147, "lon": 2.1652512, "tags": {"alt_name": "Font del Negret", "amenity": "drinking_water", "artist_name": "Eduard B. Alentorn", "indoor": "yes", "name": "Font de la Palangana", "source": "http://w10.bcn.es/APPS/gmocataleg_monum/FitxaMonumentAc.do?idioma=CA&codiMonumIntern=410", "tourism": "artwork"}}, {"type": "node", "id": 3116203551, "lat": 41.4027608, "lon": 2.1834588, "tags": {"amenity": "drinking_water", "description": "Fuente agua potable"}}, {"type": "node", "id": 3116216464, "lat": 41.4074304, "lon": 2.2103771, "tags": {"amenity": "drinking_water", "description": "Fuente agua potable"}}, {"type": "node", "id": 3116783920, "lat": 41.4114659, "lon": 2.1444327, "tags": {"amenity": "drinking_water", "wheelchair": "yes"}}, {"type": "node", "id": 3128666316, "lat": 41.3848993, "lon": 2.1374267, "tags": {"amenity": "drinking_water"}}, {"type": "node", "id": 3130832253, "lat": 41.4025784, "lon": 2.209816, "tags": {"amenity": "drinking_water", "wheelchair": "yes"}}, {"type": "node", "id": 3130832254, "lat": 41.4029283, "lon": 2.2079245, "tags": {"amenity": "drinking_water", "description": "Fuente agua potable"}}, {"type": "node", "id": 3130833330, "lat": 41.4007694, "lon": 2.2074677, "tags": {"amenity": "drinking_water", "description": "Fuente agua potable"}}, {"type": "node", "id": 3130840520, "lat": 41.4014862, "lon": 2.2026753, "tags": {"amenity": "drinking_water", "description": "Fuente agua potable"}}, {"type": "node", "id": 3130840521, "lat": 41.403959, "lon": 2.1991786, "tags": {"amenity": "drinking_water", "description": "Fuente agua potable"}}, {"type": "node", "id": 3131066429, "lat": 41.3983319, "lon": 2.1938457, "tags": {"amenity": "drinking_water", "indoor": "no"}}, {"type": "node", "id": 3134968753, "lat": 41.4092097, "lon": 2.2093631, "tags": {"amenity": "drinking_water"}}, {"type": "node", "id": 3134968754, "lat": 41.4098683, "lon": 2.2115741, "tags": {"amenity": "drinking_water"}}, {"type": "node", "id": 3140082951, "lat": 41.4408876, "lon": 2.1899289, "tags": {"amenity": "drinking_water"}}, {"type": "node", "id": 3140082952, "lat": 41.4400206, "lon": 2.1885706, "tags": {"amenity": "drinking_water"}}, {"type": "node", "id": 3144669431, "lat": 41.4155681, "lon": 2.191261, "tags": {"amenity": "drinking_water", "indoor": "no"}}, {"type": "node", "id": 3146871910, "lat": 41.4401284, "lon": 2.1898045, "tags": {"amenity": "drinking_water"}}, {"type": "node", "id": 3151768671, "lat": 41.4380413, "lon": 2.1914167, "tags": {"amenity": "drinking_water"}}, {"type": "node", "id": 3152881148, "lat": 41.4172135, "lon": 2.1650899, "tags": {"amenity": "drinking_water"}}, {"type": "node", "id": 3157086761, "lat": 41.3976644, "lon": 2.1582141, "tags": {"amenity": "drinking_water"}}, {"type": "node", "id": 3157086763, "lat": 41.3961962, "lon": 2.1435166, "tags": {"amenity": "drinking_water"}}, {"type": "node", "id": 3157261217, "lat": 41.3940006, "lon": 2.1765161, "tags": {"amenity": "drinking_water"}}, {"type": "node", "id": 3157269721, "lat": 41.3996728, "lon": 2.169126, "tags": {"amenity": "drinking_water"}}, {"type": "node", "id": 3157269801, "lat": 41.4005085, "lon": 2.168076, "tags": {"amenity": "drinking_water"}}, {"type": "node", "id": 3161454923, "lat": 41.3771687, "lon": 2.1766219, "tags": {"amenity": "drinking_water"}}, {"type": "node", "id": 3165823062, "lat": 41.4098013, "lon": 2.1836881, "tags": {"amenity": "drinking_water", "highway": "street_lamp", "indoor": "no"}}, {"type": "node", "id": 3165823162, "lat": 41.4089632, "lon": 2.1852251, "tags": {"amenity": "drinking_water", "indoor": "no", "name": "Font de l'\u00e0nec"}}, {"type": "node", "id": 3165823163, "lat": 41.4093211, "lon": 2.1843608, "tags": {"amenity": "drinking_water", "indoor": "no"}}, {"type": "node", "id": 3165823164, "lat": 41.4105334, "lon": 2.1826999, "tags": {"amenity": "drinking_water", "indoor": "no"}}, {"type": "node", "id": 3165823363, "lat": 41.4114404, "lon": 2.186154, "tags": {"amenity": "drinking_water", "indoor": "no", "wheelchair": "yes"}}, {"type": "node", "id": 3184842409, "lat": 41.4216686, "lon": 2.1729441, "tags": {"amenity": "drinking_water"}}, {"type": "node", "id": 3184847334, "lat": 41.4291269, "lon": 2.171677, "tags": {"amenity": "drinking_water", "description": "Fuente agua potable"}}, {"type": "node", "id": 3189339435, "lat": 41.3577984, "lon": 2.1011876, "tags": {"amenity": "drinking_water", "indoor": "no"}}, {"type": "node", "id": 3189350064, "lat": 41.3593848, "lon": 2.097565, "tags": {"amenity": "drinking_water", "indoor": "no"}}, {"type": "node", "id": 3193826562, "lat": 41.3821805, "lon": 2.1798421, "tags": {"amenity": "drinking_water", "indoor": "no"}}, {"type": "node", "id": 3196554223, "lat": 41.3853956, "lon": 2.1146097, "tags": {"amenity": "drinking_water"}}, {"type": "node", "id": 3203032011, "lat": 41.3845886, "lon": 2.1118713, "tags": {"amenity": "drinking_water"}}, {"type": "node", "id": 3204544466, "lat": 41.3993878, "lon": 2.1720894, "tags": {"amenity": "drinking_water", "description": "Font r\u00e8plica del model Wallace", "name": "Homenatge a Marcel\u00b7l\u00ed Champagnat", "source": "http://w10.bcn.es/APPS/gmocataleg_monum/FitxaMonumentAc.do?idioma=CA&codiMonumIntern=422"}}, {"type": "node", "id": 3268666324, "lat": 41.4140658, "lon": 2.1520261, "tags": {"amenity": "drinking_water"}}, {"type": "node", "id": 3268666781, "lat": 41.365247, "lon": 2.1522199, "tags": {"amenity": "drinking_water"}}, {"type": "node", "id": 3270015161, "lat": 41.3885013, "lon": 2.1800169, "tags": {"amenity": "drinking_water"}}, {"type": "node", "id": 3287733363, "lat": 41.3845123, "lon": 2.1140578, "tags": {"amenity": "drinking_water"}}, {"type": "node", "id": 3288566763, "lat": 41.3845003, "lon": 2.1719429, "tags": {"amenity": "drinking_water", "artwork_type": "statue", "tourism": "artwork", "wheelchair": "yes"}}, {"type": "node", "id": 3288658763, "lat": 41.3844788, "lon": 2.1774965, "tags": {"amenity": "drinking_water", "indoor": "no"}}, {"type": "node", "id": 3290621762, "lat": 41.4184666, "lon": 2.203484, "tags": {"amenity": "drinking_water", "indoor": "no"}}, {"type": "node", "id": 3298384918, "lat": 41.3714193, "lon": 2.0853141, "tags": {"amenity": "drinking_water"}}, {"type": "node", "id": 3302698063, "lat": 41.3758012, "lon": 2.1354541, "tags": {"amenity": "drinking_water", "drinking_water": "yes", "memorial": "statue", "name": "Font del Vell", "reg_name": "Font del Xato", "wikidata": "Q18145791", "wikipedia": "ca:Font del Vell"}}, {"type": "node", "id": 3311803571, "lat": 41.4290188, "lon": 2.1762916, "tags": {"amenity": "drinking_water"}}, {"type": "node", "id": 3340414742, "lat": 41.3741371, "lon": 2.1594246, "tags": {"amenity": "drinking_water", "bottle": "yes", "fee": "no", "wheelchair": "yes"}}, {"type": "node", "id": 3350102455, "lat": 41.4025205, "lon": 2.158383, "tags": {"amenity": "drinking_water"}}, {"type": "node", "id": 3350102694, "lat": 41.4038688, "lon": 2.1558614, "tags": {"amenity": "drinking_water"}}, {"type": "node", "id": 3361982894, "lat": 41.4070298, "lon": 2.1802587, "tags": {"amenity": "drinking_water", "indoor": "no"}}, {"type": "node", "id": 3382223632, "lat": 41.4384572, "lon": 2.1475056, "tags": {"amenity": "drinking_water"}}, {"type": "node", "id": 3382899707, "lat": 41.359237, "lon": 2.0958024, "tags": {"amenity": "drinking_water"}}, {"type": "node", "id": 3382904503, "lat": 41.3600956, "lon": 2.0940617, "tags": {"amenity": "drinking_water"}}, {"type": "node", "id": 3382917601, "lat": 41.3640054, "lon": 2.098002, "tags": {"amenity": "drinking_water"}}, {"type": "node", "id": 3382950868, "lat": 41.3711275, "lon": 2.1081676, "tags": {"amenity": "drinking_water"}}, {"type": "node", "id": 3382964302, "lat": 41.4623081, "lon": 2.1711949, "tags": {"amenity": "drinking_water"}}, {"type": "node", "id": 3382965149, "lat": 41.4627533, "lon": 2.1711064, "tags": {"amenity": "drinking_water"}}, {"type": "node", "id": 3388968521, "lat": 41.3852041, "lon": 2.1299371, "tags": {"amenity": "drinking_water"}}, {"type": "node", "id": 3388968522, "lat": 41.3835861, "lon": 2.1304924, "tags": {"amenity": "drinking_water"}}, {"type": "node", "id": 3416765893, "lat": 41.4249797, "lon": 2.1764122, "tags": {"amenity": "drinking_water", "indoor": "no"}}, {"type": "node", "id": 3416766893, "lat": 41.4233735, "lon": 2.1828059, "tags": {"amenity": "drinking_water", "indoor": "no"}}, {"type": "node", "id": 3418340496, "lat": 41.4008466, "lon": 2.1471154, "tags": {"amenity": "drinking_water", "indoor": "no", "tourism": "artwork"}}, {"type": "node", "id": 3420301894, "lat": 41.3881659, "lon": 2.1501348, "tags": {"amenity": "drinking_water", "indoor": "no"}}, {"type": "node", "id": 3430441336, "lat": 41.3958203, "lon": 2.1837323, "tags": {"amenity": "drinking_water"}}, {"type": "node", "id": 3434283795, "lat": 41.3980946, "lon": 2.1482233, "tags": {"amenity": "drinking_water", "indoor": "no"}}, {"type": "node", "id": 3482774535, "lat": 41.3737017, "lon": 2.0850693, "tags": {"amenity": "drinking_water"}}, {"type": "node", "id": 3488751995, "lat": 41.4425567, "lon": 2.1852238, "tags": {"amenity": "drinking_water"}}, {"type": "node", "id": 3488751996, "lat": 41.4369796, "lon": 2.1803008, "tags": {"amenity": "drinking_water"}}, {"type": "node", "id": 3488754500, "lat": 41.4387035, "lon": 2.1743087, "tags": {"amenity": "drinking_water"}}, {"type": "node", "id": 3497731504, "lat": 41.376464, "lon": 2.1116582, "tags": {"amenity": "drinking_water"}}, {"type": "node", "id": 3520822377, "lat": 41.4174898, "lon": 2.0962072, "tags": {"amenity": "drinking_water"}}, {"type": "node", "id": 3520822378, "lat": 41.4181945, "lon": 2.0970813, "tags": {"amenity": "drinking_water"}}, {"type": "node", "id": 3521917426, "lat": 41.4081544, "lon": 2.1283658, "tags": {"amenity": "drinking_water"}}, {"type": "node", "id": 3529190631, "lat": 41.3860677, "lon": 2.1652552, "tags": {"amenity": "drinking_water", "artwork_type": "sculpture", "tourism": "artwork"}}, {"type": "node", "id": 3530468405, "lat": 41.4562692, "lon": 2.1945491, "tags": {"amenity": "drinking_water"}}, {"type": "node", "id": 3601248002, "lat": 41.4045582, "lon": 2.1651551, "tags": {"amenity": "drinking_water", "indoor": "no"}}, {"type": "node", "id": 3601248003, "lat": 41.4105596, "lon": 2.1733445, "tags": {"amenity": "drinking_water", "indoor": "no"}}, {"type": "node", "id": 3601249495, "lat": 41.4002554, "lon": 2.1561907, "tags": {"amenity": "drinking_water", "indoor": "no", "start_date": "1845", "wheelchair": "no"}}, {"type": "node", "id": 3601250197, "lat": 41.4028786, "lon": 2.1628456, "tags": {"amenity": "drinking_water", "indoor": "no"}}, {"type": "node", "id": 3614234042, "lat": 41.3756313, "lon": 2.1533086, "tags": {"amenity": "drinking_water", "indoor": "no"}}, {"type": "node", "id": 3614234043, "lat": 41.375805, "lon": 2.1538543, "tags": {"amenity": "drinking_water", "indoor": "no"}}, {"type": "node", "id": 3614234044, "lat": 41.3760558, "lon": 2.1548801, "tags": {"amenity": "drinking_water", "indoor": "no"}}, {"type": "node", "id": 3614234045, "lat": 41.3765982, "lon": 2.1565493, "tags": {"amenity": "drinking_water", "indoor": "no"}}, {"type": "node", "id": 3614234046, "lat": 41.3767735, "lon": 2.1570224, "tags": {"amenity": "drinking_water", "indoor": "no"}}, {"type": "node", "id": 3614234047, "lat": 41.3770802, "lon": 2.1581026, "tags": {"amenity": "drinking_water", "indoor": "no"}}, {"type": "node", "id": 3616716535, "lat": 41.3975457, "lon": 2.174548, "tags": {"amenity": "drinking_water", "indoor": "no"}}, {"type": "node", "id": 3616716536, "lat": 41.3984303, "lon": 2.1706676, "tags": {"amenity": "drinking_water", "indoor": "no"}}, {"type": "node", "id": 3616716537, "lat": 41.4030126, "lon": 2.1733381, "tags": {"amenity": "drinking_water", "indoor": "no"}}, {"type": "node", "id": 3621660963, "lat": 41.3737092, "lon": 2.1287103, "tags": {"amenity": "drinking_water"}}, {"type": "node", "id": 3627634724, "lat": 41.3767052, "lon": 2.1095224, "tags": {"amenity": "drinking_water"}}, {"type": "node", "id": 3627648814, "lat": 41.3741594, "lon": 2.0992606, "tags": {"amenity": "drinking_water"}}, {"type": "node", "id": 3640912439, "lat": 41.3617009, "lon": 2.1124911, "tags": {"amenity": "drinking_water"}}, {"type": "node", "id": 3640913187, "lat": 41.3599018, "lon": 2.0962823, "tags": {"amenity": "drinking_water"}}, {"type": "node", "id": 3640979564, "lat": 41.3598088, "lon": 2.1001637, "tags": {"amenity": "drinking_water"}}, {"type": "node", "id": 3640981875, "lat": 41.3595043, "lon": 2.0991726, "tags": {"amenity": "drinking_water"}}, {"type": "node", "id": 3641996116, "lat": 41.3688424, "lon": 2.1028628, "tags": {"amenity": "drinking_water"}}, {"type": "node", "id": 3647820433, "lat": 41.3883082, "lon": 2.1390392, "tags": {"amenity": "drinking_water"}}, {"type": "node", "id": 3651321329, "lat": 41.4122746, "lon": 2.2173967, "tags": {"amenity": "drinking_water", "indoor": "no"}}, {"type": "node", "id": 3655151800, "lat": 41.3701975, "lon": 2.1566883, "tags": {"amenity": "drinking_water"}}, {"type": "node", "id": 3657357337, "lat": 41.4236832, "lon": 2.1193192, "tags": {"amenity": "drinking_water"}}, {"type": "node", "id": 3657357340, "lat": 41.424299, "lon": 2.1197264, "tags": {"amenity": "drinking_water"}}, {"type": "node", "id": 3658117050, "lat": 41.3927907, "lon": 2.1953933, "tags": {"amenity": "drinking_water", "check_date": "2021-08-17"}}, {"type": "node", "id": 3668720551, "lat": 41.3801314, "lon": 2.1340841, "tags": {"amenity": "drinking_water"}}, {"type": "node", "id": 3669621942, "lat": 41.378927, "lon": 2.1198366, "tags": {"amenity": "drinking_water"}}, {"type": "node", "id": 3673723905, "lat": 41.3882408, "lon": 2.1261029, "tags": {"amenity": "drinking_water"}}, {"type": "node", "id": 3673884188, "lat": 41.4399757, "lon": 2.178865, "tags": {"amenity": "drinking_water"}}, {"type": "node", "id": 3675218247, "lat": 41.3820992, "lon": 2.1357801, "tags": {"amenity": "drinking_water"}}, {"type": "node", "id": 3679281743, "lat": 41.3916092, "lon": 2.1256721, "tags": {"amenity": "drinking_water"}}, {"type": "node", "id": 3679292814, "lat": 41.3916054, "lon": 2.1293371, "tags": {"amenity": "drinking_water"}}, {"type": "node", "id": 3679294927, "lat": 41.3906021, "lon": 2.128778, "tags": {"amenity": "drinking_water"}}, {"type": "node", "id": 3680058764, "lat": 41.3859739, "lon": 2.1241268, "tags": {"amenity": "drinking_water"}}, {"type": "node", "id": 3680995221, "lat": 41.4019285, "lon": 2.1248817, "tags": {"amenity": "drinking_water"}}, {"type": "node", "id": 3682279487, "lat": 41.4415809, "lon": 2.1739193, "tags": {"amenity": "drinking_water"}}, {"type": "node", "id": 3682720148, "lat": 41.3811684, "lon": 2.1369491, "tags": {"amenity": "drinking_water"}}, {"type": "node", "id": 3682795168, "lat": 41.4353676, "lon": 2.189929, "tags": {"amenity": "drinking_water"}}, {"type": "node", "id": 3685456945, "lat": 41.3805962, "lon": 2.1409359, "tags": {"amenity": "drinking_water"}}, {"type": "node", "id": 3693894131, "lat": 41.4562131, "lon": 2.1957252, "tags": {"amenity": "drinking_water"}}, {"type": "node", "id": 3702768512, "lat": 41.4122278, "lon": 2.1652103, "tags": {"amenity": "drinking_water"}}, {"type": "node", "id": 3702768870, "lat": 41.413281, "lon": 2.1503232, "tags": {"amenity": "drinking_water"}}, {"type": "node", "id": 3702777060, "lat": 41.4174577, "lon": 2.1463892, "tags": {"amenity": "drinking_water"}}, {"type": "node", "id": 3706844267, "lat": 41.3785858, "lon": 2.132935, "tags": {"amenity": "drinking_water"}}, {"type": "node", "id": 3709269713, "lat": 41.4437233, "lon": 2.1729696, "tags": {"amenity": "drinking_water"}}, {"type": "node", "id": 3725423438, "lat": 41.3984194, "lon": 2.155633, "tags": {"amenity": "drinking_water"}}, {"type": "node", "id": 3731611591, "lat": 41.4139415, "lon": 2.1375534, "tags": {"amenity": "drinking_water"}}, {"type": "node", "id": 3731611592, "lat": 41.4244753, "lon": 2.141724, "tags": {"amenity": "drinking_water", "wheelchair": "yes"}}, {"type": "node", "id": 3731611644, "lat": 41.449487, "lon": 2.1941432, "tags": {"amenity": "drinking_water"}}, {"type": "node", "id": 3742388626, "lat": 41.4391528, "lon": 2.2029712, "tags": {"amenity": "drinking_water"}}, {"type": "node", "id": 3746899721, "lat": 41.4382019, "lon": 2.202903, "tags": {"amenity": "drinking_water"}}, {"type": "node", "id": 3748104495, "lat": 41.3827782, "lon": 2.1414781, "tags": {"amenity": "drinking_water"}}, {"type": "node", "id": 3749345162, "lat": 41.3817055, "lon": 2.1358599, "tags": {"amenity": "drinking_water"}}, {"type": "node", "id": 3749345163, "lat": 41.3802565, "lon": 2.136466, "tags": {"amenity": "drinking_water"}}, {"type": "node", "id": 3749382462, "lat": 41.3750446, "lon": 2.1727581, "tags": {"amenity": "drinking_water"}}, {"type": "node", "id": 3749383543, "lat": 41.3751511, "lon": 2.1702677, "tags": {"amenity": "drinking_water"}}, {"type": "node", "id": 3749383563, "lat": 41.3753744, "lon": 2.1769699, "tags": {"amenity": "drinking_water", "wheelchair": "yes"}}, {"type": "node", "id": 3749423858, "lat": 41.377873, "lon": 2.1834776, "tags": {"amenity": "drinking_water"}}, {"type": "node", "id": 3749429832, "lat": 41.3764851, "lon": 2.188927, "tags": {"amenity": "drinking_water"}}, {"type": "node", "id": 3749434937, "lat": 41.3951227, "lon": 2.1620842, "tags": {"amenity": "drinking_water"}}, {"type": "node", "id": 3749438193, "lat": 41.4047218, "lon": 2.1744711, "tags": {"amenity": "drinking_water"}}, {"type": "node", "id": 3749439928, "lat": 41.4103716, "lon": 2.1665793, "tags": {"amenity": "drinking_water"}}, {"type": "node", "id": 3749497503, "lat": 41.3754654, "lon": 2.1272371, "tags": {"amenity": "drinking_water"}}, {"type": "node", "id": 3752752912, "lat": 41.3599125, "lon": 2.1281777, "tags": {"access": "yes", "amenity": "drinking_water", "covered": "no", "fee": "no", "indoor": "no", "operator": "Ajuntament de l'Hospitalet de Llobregat", "wheelchair": "yes"}}, {"type": "node", "id": 3758961590, "lat": 41.4182339, "lon": 2.1742713, "tags": {"amenity": "drinking_water"}}, {"type": "node", "id": 3802565230, "lat": 41.4290315, "lon": 2.1415191, "tags": {"amenity": "drinking_water"}}, {"type": "node", "id": 3802565231, "lat": 41.42836, "lon": 2.1329394, "tags": {"amenity": "drinking_water"}}, {"type": "node", "id": 3802565233, "lat": 41.4253603, "lon": 2.1396252, "tags": {"amenity": "drinking_water", "name": "Getseman\u00ed", "wheelchair": "limited"}}, {"type": "node", "id": 3802565234, "lat": 41.4302188, "lon": 2.1437021, "tags": {"amenity": "drinking_water", "name": "Jard. Pedro Mu\u00f1oz Seca"}}, {"type": "node", "id": 3802565235, "lat": 41.4304301, "lon": 2.1442618, "tags": {"amenity": "drinking_water", "name": "Jard. Pedro Mu\u00f1oz Seca"}}, {"type": "node", "id": 3802565236, "lat": 41.4267414, "lon": 2.1361068, "tags": {"amenity": "drinking_water"}}, {"type": "node", "id": 3802565237, "lat": 41.4259684, "lon": 2.1370296, "tags": {"amenity": "drinking_water"}}, {"type": "node", "id": 3802565238, "lat": 41.4259756, "lon": 2.1364251, "tags": {"amenity": "drinking_water"}}, {"type": "node", "id": 3802565239, "lat": 41.4252594, "lon": 2.1370582, "tags": {"amenity": "drinking_water"}}, {"type": "node", "id": 3802565240, "lat": 41.4268431, "lon": 2.1376213, "tags": {"amenity": "drinking_water", "ref": "07-073", "wheelchair": "yes"}}, {"type": "node", "id": 3802565241, "lat": 41.4250824, "lon": 2.1385996, "tags": {"amenity": "drinking_water", "name": "Natzaret"}}, {"type": "node", "id": 3802565244, "lat": 41.4273901, "lon": 2.1350605, "tags": {"amenity": "drinking_water", "wheelchair": "yes"}}, {"type": "node", "id": 3802565245, "lat": 41.4269269, "lon": 2.1371152, "tags": {"amenity": "drinking_water", "name": "P\u00e7a de Meguid\u00f3"}}, {"type": "node", "id": 3802565246, "lat": 41.4305272, "lon": 2.1428003, "tags": {"amenity": "drinking_water"}}, {"type": "node", "id": 3807558458, "lat": 41.4018729, "lon": 2.1527137, "tags": {"amenity": "drinking_water", "indoor": "no"}}, {"type": "node", "id": 3814125457, "lat": 41.4388628, "lon": 2.1463602, "tags": {"amenity": "drinking_water"}}, {"type": "node", "id": 3854639709, "lat": 41.3945779, "lon": 2.1446497, "tags": {"amenity": "drinking_water"}}, {"type": "node", "id": 3881231215, "lat": 41.4145732, "lon": 2.202882, "tags": {"amenity": "drinking_water"}}, {"type": "node", "id": 3881231220, "lat": 41.4149292, "lon": 2.2029571, "tags": {"amenity": "drinking_water"}}, {"type": "node", "id": 3884068397, "lat": 41.3834416, "lon": 2.1816436, "tags": {"amenity": "drinking_water", "image": "https://europeanwaterproject.org/photos/2020/EWP3884068397.jpg"}}, {"type": "node", "id": 3884074335, "lat": 41.3820197, "lon": 2.1768253, "tags": {"amenity": "drinking_water"}}, {"type": "node", "id": 3933541438, "lat": 41.4019828, "lon": 2.1638145, "tags": {"amenity": "drinking_water"}}, {"type": "node", "id": 3942315114, "lat": 41.3945691, "lon": 2.200527, "tags": {"amenity": "drinking_water", "ref": "0-089"}}, {"type": "node", "id": 3959362791, "lat": 41.3967271, "lon": 2.2004848, "tags": {"amenity": "drinking_water"}}, {"type": "node", "id": 3964552794, "lat": 41.3954083, "lon": 2.1994482, "tags": {"amenity": "drinking_water"}}, {"type": "node", "id": 3973023928, "lat": 41.3784679, "lon": 2.116678, "tags": {"amenity": "drinking_water"}}, {"type": "node", "id": 4000392337, "lat": 41.4021545, "lon": 2.1275808, "tags": {"amenity": "drinking_water"}}, {"type": "node", "id": 4070638089, "lat": 41.404556, "lon": 2.2100746, "tags": {"amenity": "drinking_water"}}, {"type": "node", "id": 4072115078, "lat": 41.3967608, "lon": 2.2023199, "tags": {"amenity": "drinking_water"}}, {"type": "node", "id": 4109434019, "lat": 41.414214, "lon": 2.2028455, "tags": {"amenity": "drinking_water"}}, {"type": "node", "id": 4109534160, "lat": 41.4136977, "lon": 2.2029001, "tags": {"amenity": "drinking_water"}}, {"type": "node", "id": 4127797238, "lat": 41.3721269, "lon": 2.1718156, "tags": {"amenity": "drinking_water"}}, {"type": "node", "id": 4136727073, "lat": 41.3985689, "lon": 2.20861, "tags": {"amenity": "drinking_water"}}, {"type": "node", "id": 4143351918, "lat": 41.4144434, "lon": 2.10543, "tags": {"amenity": "drinking_water"}}, {"type": "node", "id": 4143428165, "lat": 41.384217, "lon": 2.1778363, "tags": {"amenity": "drinking_water"}}, {"type": "node", "id": 4179259533, "lat": 41.3683509, "lon": 2.1654296, "tags": {"amenity": "drinking_water"}}, {"type": "node", "id": 4212119289, "lat": 41.3847567, "lon": 2.1827167, "tags": {"amenity": "drinking_water"}}, {"type": "node", "id": 4215643190, "lat": 41.383527, "lon": 2.167243, "tags": {"amenity": "drinking_water"}}, {"type": "node", "id": 4218567626, "lat": 41.3866538, "lon": 2.1800471, "tags": {"amenity": "drinking_water"}}, {"type": "node", "id": 4228966076, "lat": 41.3824668, "lon": 2.1940745, "tags": {"amenity": "drinking_water"}}, {"type": "node", "id": 4232398060, "lat": 41.3828475, "lon": 2.1840302, "tags": {"amenity": "drinking_water"}}, {"type": "node", "id": 4232414094, "lat": 41.3834979, "lon": 2.1853737, "tags": {"amenity": "drinking_water", "image": "https://europeanwaterproject.org/photos/2020/EWP4232414094.jpg"}}, {"type": "node", "id": 4234283410, "lat": 41.3713796, "lon": 2.1683192, "tags": {"amenity": "drinking_water"}}, {"type": "node", "id": 4234489090, "lat": 41.3768092, "lon": 2.1754216, "tags": {"amenity": "drinking_water"}}, {"type": "node", "id": 4234504790, "lat": 41.3727336, "lon": 2.1706792, "tags": {"amenity": "drinking_water"}}, {"type": "node", "id": 4241400913, "lat": 41.4480816, "lon": 2.1899658, "tags": {"amenity": "drinking_water"}}, {"type": "node", "id": 4241400914, "lat": 41.4485122, "lon": 2.1931746, "tags": {"amenity": "drinking_water"}}, {"type": "node", "id": 4262392789, "lat": 41.3707862, "lon": 2.1667998, "tags": {"amenity": "drinking_water"}}, {"type": "node", "id": 4267145077, "lat": 41.3663891, "lon": 2.1591064, "tags": {"amenity": "drinking_water"}}, {"type": "node", "id": 4267145078, "lat": 41.366372, "lon": 2.1590567, "tags": {"amenity": "drinking_water"}}, {"type": "node", "id": 4270044967, "lat": 41.3835908, "lon": 2.151052, "tags": {"amenity": "drinking_water"}}, {"type": "node", "id": 4270047912, "lat": 41.382183, "lon": 2.151507, "tags": {"amenity": "drinking_water"}}, {"type": "node", "id": 4276217088, "lat": 41.409117, "lon": 2.1905916, "tags": {"amenity": "drinking_water"}}, {"type": "node", "id": 4281942092, "lat": 41.4543766, "lon": 2.1761472, "tags": {"amenity": "drinking_water"}}, {"type": "node", "id": 4281965492, "lat": 41.4577807, "lon": 2.1792839, "tags": {"amenity": "drinking_water"}}, {"type": "node", "id": 4281965493, "lat": 41.4534551, "lon": 2.1746989, "tags": {"amenity": "drinking_water"}}, {"type": "node", "id": 4281971691, "lat": 41.4532578, "lon": 2.1741742, "tags": {"amenity": "drinking_water"}}, {"type": "node", "id": 4284328689, "lat": 41.3838938, "lon": 2.1636199, "tags": {"amenity": "drinking_water"}}, {"type": "node", "id": 4297147089, "lat": 41.3784791, "lon": 2.1541929, "tags": {"amenity": "drinking_water", "name": "Gran Via - Rocafort"}}, {"type": "node", "id": 4317376260, "lat": 41.3600669, "lon": 2.1600115, "tags": {"amenity": "drinking_water"}}, {"type": "node", "id": 4317403041, "lat": 41.3622089, "lon": 2.1509173, "tags": {"amenity": "drinking_water"}}, {"type": "node", "id": 4317403042, "lat": 41.3635729, "lon": 2.1500697, "tags": {"amenity": "drinking_water"}}, {"type": "node", "id": 4317414967, "lat": 41.3685151, "lon": 2.1606439, "tags": {"amenity": "drinking_water"}}, {"type": "node", "id": 4318423289, "lat": 41.4017828, "lon": 2.1405564, "tags": {"amenity": "drinking_water"}}, {"type": "node", "id": 4318423489, "lat": 41.3999368, "lon": 2.1432925, "tags": {"amenity": "drinking_water"}}, {"type": "node", "id": 4318423490, "lat": 41.3983679, "lon": 2.1455353, "tags": {"amenity": "drinking_water"}}, {"type": "node", "id": 4318460063, "lat": 41.3875037, "lon": 2.18418, "tags": {"amenity": "drinking_water"}}, {"type": "node", "id": 4318504183, "lat": 41.3875592, "lon": 2.188639, "tags": {"amenity": "drinking_water"}}, {"type": "node", "id": 4320220655, "lat": 41.3805461, "lon": 2.1662623, "tags": {"amenity": "drinking_water"}}, {"type": "node", "id": 4321181001, "lat": 41.4093831, "lon": 2.1420209, "tags": {"amenity": "drinking_water"}}, {"type": "node", "id": 4322871200, "lat": 41.4146113, "lon": 2.1527746, "tags": {"amenity": "drinking_water"}}, {"type": "node", "id": 4333618132, "lat": 41.3839387, "lon": 2.1696703, "tags": {"amenity": "drinking_water"}}, {"type": "node", "id": 4333618723, "lat": 41.3835688, "lon": 2.1713845, "tags": {"amenity": "drinking_water"}}, {"type": "node", "id": 4333654586, "lat": 41.3805863, "lon": 2.1537568, "tags": {"amenity": "drinking_water", "image": "https://europeanwaterproject.org/photos/2020/EWP4333654586.jpg", "wheelchair": "limited"}}, {"type": "node", "id": 4333655630, "lat": 41.3760441, "lon": 2.1574192, "tags": {"amenity": "drinking_water"}}, {"type": "node", "id": 4334124081, "lat": 41.423633, "lon": 2.1580826, "tags": {"amenity": "drinking_water"}}, {"type": "node", "id": 4334127978, "lat": 41.4308955, "lon": 2.1560182, "tags": {"amenity": "drinking_water"}}, {"type": "node", "id": 4334132213, "lat": 41.4324229, "lon": 2.1539204, "tags": {"amenity": "drinking_water"}}, {"type": "node", "id": 4334132214, "lat": 41.4314085, "lon": 2.1546477, "tags": {"amenity": "drinking_water"}}, {"type": "node", "id": 4338768491, "lat": 41.418782, "lon": 2.1573412, "tags": {"amenity": "drinking_water", "wheelchair": "yes"}}, {"type": "node", "id": 4338768492, "lat": 41.4191885, "lon": 2.1543771, "tags": {"amenity": "drinking_water"}}, {"type": "node", "id": 4338768695, "lat": 41.438703, "lon": 2.1496352, "tags": {"amenity": "drinking_water"}}, {"type": "node", "id": 4338768891, "lat": 41.4378512, "lon": 2.150649, "tags": {"amenity": "drinking_water"}}, {"type": "node", "id": 4339694590, "lat": 41.4212822, "lon": 2.205985, "tags": {"amenity": "drinking_water"}}, {"type": "node", "id": 4356565090, "lat": 41.4148272, "lon": 2.1856746, "tags": {"amenity": "drinking_water"}}, {"type": "node", "id": 4357884269, "lat": 41.3895239, "lon": 2.1789619}, {"type": "node", "id": 4360070210, "lat": 41.40448, "lon": 2.1537972, "tags": {"amenity": "drinking_water"}}, {"type": "node", "id": 4361491390, "lat": 41.3921192, "lon": 2.1857214, "tags": {"amenity": "drinking_water"}}, {"type": "node", "id": 4362045622, "lat": 41.3797909, "lon": 2.1927978, "tags": {"amenity": "drinking_water"}}, {"type": "node", "id": 4362047124, "lat": 41.3841968, "lon": 2.1954952, "tags": {"amenity": "drinking_water"}}, {"type": "node", "id": 4362047125, "lat": 41.3825059, "lon": 2.1944929, "tags": {"amenity": "drinking_water"}}, {"type": "node", "id": 4369845191, "lat": 41.3693764, "lon": 2.1326947, "tags": {"amenity": "drinking_water"}}, {"type": "node", "id": 4369845507, "lat": 41.3679736, "lon": 2.1334731, "tags": {"amenity": "drinking_water"}}, {"type": "node", "id": 4370090295, "lat": 41.3859644, "lon": 2.1644328, "tags": {"amenity": "drinking_water"}}, {"type": "node", "id": 4371643981, "lat": 41.3824052, "lon": 2.1551069, "tags": {"amenity": "drinking_water"}}, {"type": "node", "id": 4379761790, "lat": 41.3921803, "lon": 2.1899297, "tags": {"amenity": "drinking_water"}}, {"type": "node", "id": 4380615990, "lat": 41.3717999, "lon": 2.1321426, "tags": {"amenity": "drinking_water", "wheelchair": "yes"}}, {"type": "node", "id": 4380809789, "lat": 41.3731473, "lon": 2.1335947, "tags": {"amenity": "drinking_water"}}, {"type": "node", "id": 4380809989, "lat": 41.3742543, "lon": 2.1342876, "tags": {"amenity": "drinking_water"}}, {"type": "node", "id": 4382677789, "lat": 41.3703359, "lon": 2.1334778, "tags": {"amenity": "drinking_water", "wheelchair": "yes"}}, {"type": "node", "id": 4382677989, "lat": 41.3703206, "lon": 2.1334805, "tags": {"amenity": "drinking_water", "wheelchair": "yes"}}, {"type": "node", "id": 4384365396, "lat": 41.366765, "lon": 2.1369183, "tags": {"amenity": "drinking_water"}}, {"type": "node", "id": 4387559291, "lat": 41.4041411, "lon": 2.2076676, "tags": {"amenity": "drinking_water"}}, {"type": "node", "id": 4393285644, "lat": 41.4084841, "lon": 2.2216251, "tags": {"amenity": "drinking_water"}}, {"type": "node", "id": 4394781712, "lat": 41.435325, "lon": 2.172253, "tags": {"amenity": "drinking_water"}}, {"type": "node", "id": 4396030137, "lat": 41.3691479, "lon": 2.1517003, "tags": {"amenity": "drinking_water"}}, {"type": "node", "id": 4396049589, "lat": 41.3902387, "lon": 2.1995399, "tags": {"amenity": "drinking_water"}}, {"type": "node", "id": 4396231091, "lat": 41.3927966, "lon": 2.1983895, "tags": {"amenity": "drinking_water"}}, {"type": "node", "id": 4396604867, "lat": 41.3688561, "lon": 2.1686229, "tags": {"amenity": "drinking_water"}}, {"type": "node", "id": 4396616310, "lat": 41.3680091, "lon": 2.1659677, "tags": {"amenity": "drinking_water"}}, {"type": "node", "id": 4400862483, "lat": 41.3692132, "lon": 2.1682858, "tags": {"amenity": "drinking_water"}}, {"type": "node", "id": 4400862484, "lat": 41.3706467, "lon": 2.1720544, "tags": {"amenity": "drinking_water"}}, {"type": "node", "id": 4401863490, "lat": 41.3925741, "lon": 2.1890296, "tags": {"amenity": "drinking_water"}}, {"type": "node", "id": 4403277329, "lat": 41.365994, "lon": 2.1549259, "tags": {"amenity": "drinking_water"}}, {"type": "node", "id": 4406275327, "lat": 41.4329117, "lon": 2.1864396, "tags": {"amenity": "drinking_water"}}, {"type": "node", "id": 4407308317, "lat": 41.4286249, "lon": 2.1655023, "tags": {"amenity": "drinking_water"}}, {"type": "node", "id": 4425653093, "lat": 41.4111113, "lon": 2.1791508, "tags": {"amenity": "drinking_water"}}, {"type": "node", "id": 4450414702, "lat": 41.3672652, "lon": 2.1553618, "tags": {"amenity": "drinking_water"}}, {"type": "node", "id": 4450414709, "lat": 41.3677181, "lon": 2.1565554, "tags": {"amenity": "drinking_water"}}, {"type": "node", "id": 4458451649, "lat": 41.3662624, "lon": 2.1670658, "tags": {"amenity": "drinking_water"}}, {"type": "node", "id": 4470061020, "lat": 41.3933556, "lon": 2.0919744, "tags": {"amenity": "drinking_water"}}, {"type": "node", "id": 4475325477, "lat": 41.4123409, "lon": 2.1411474, "tags": {"amenity": "drinking_water"}}, {"type": "node", "id": 4475428023, "lat": 41.4082613, "lon": 2.1313511, "tags": {"amenity": "drinking_water"}}, {"type": "node", "id": 4510147390, "lat": 41.4179503, "lon": 2.2013224, "tags": {"amenity": "drinking_water"}}, {"type": "node", "id": 4516050809, "lat": 41.4313111, "lon": 2.1549664, "tags": {"amenity": "drinking_water"}}, {"type": "node", "id": 4523228418, "lat": 41.3978178, "lon": 2.1575809, "tags": {"amenity": "drinking_water"}}, {"type": "node", "id": 4551543974, "lat": 41.381401, "lon": 2.1461112, "tags": {"amenity": "drinking_water"}}, {"type": "node", "id": 4560843785, "lat": 41.4138891, "lon": 2.1521416, "tags": {"amenity": "drinking_water"}}, {"type": "node", "id": 4578590090, "lat": 41.462905, "lon": 2.1704415, "tags": {"amenity": "drinking_water"}}, {"type": "node", "id": 4578593191, "lat": 41.4648372, "lon": 2.1672419, "tags": {"amenity": "drinking_water"}}, {"type": "node", "id": 4579766067, "lat": 41.4162899, "lon": 2.1527199, "tags": {"amenity": "drinking_water"}}, {"type": "node", "id": 4585526598, "lat": 41.3689704, "lon": 2.1584572, "tags": {"amenity": "drinking_water"}}, {"type": "node", "id": 4592324157, "lat": 41.3688147, "lon": 2.1645034, "tags": {"amenity": "drinking_water"}}, {"type": "node", "id": 4592365380, "lat": 41.3623015, "lon": 2.1631621, "tags": {"amenity": "drinking_water"}}, {"type": "node", "id": 4614012073, "lat": 41.4182981, "lon": 2.1665259, "tags": {"amenity": "drinking_water"}}, {"type": "node", "id": 4645003643, "lat": 41.3659029, "lon": 2.1669115, "tags": {"amenity": "drinking_water"}}, {"type": "node", "id": 4645951696, "lat": 41.3669809, "lon": 2.1536362, "tags": {"amenity": "drinking_water"}}, {"type": "node", "id": 4654612007, "lat": 41.4046474, "lon": 2.1751461, "tags": {"amenity": "drinking_water"}}, {"type": "node", "id": 4659929790, "lat": 41.3950382, "lon": 2.1857079, "tags": {"amenity": "drinking_water"}}, {"type": "node", "id": 4670159098, "lat": 41.4012085, "lon": 2.1585, "tags": {"amenity": "drinking_water"}}, {"type": "node", "id": 4674137091, "lat": 41.426379, "lon": 2.1894246, "tags": {"amenity": "drinking_water"}}, {"type": "node", "id": 4684141168, "lat": 41.3718683, "lon": 2.1671405, "tags": {"amenity": "drinking_water"}}, {"type": "node", "id": 4712592608, "lat": 41.3684534, "lon": 2.1438775, "tags": {"amenity": "drinking_water"}}, {"type": "node", "id": 4712592622, "lat": 41.368231, "lon": 2.1605324, "tags": {"amenity": "drinking_water"}}, {"type": "node", "id": 4715046193, "lat": 41.3797222, "lon": 2.1870384, "tags": {"amenity": "drinking_water"}}, {"type": "node", "id": 4719115891, "lat": 41.4024395, "lon": 2.1813687, "tags": {"amenity": "drinking_water"}}, {"type": "node", "id": 4719259889, "lat": 41.4062719, "lon": 2.1855978, "tags": {"amenity": "drinking_water"}}, {"type": "node", "id": 4723606393, "lat": 41.4231623, "lon": 2.1861302, "tags": {"amenity": "drinking_water"}}, {"type": "node", "id": 4724496789, "lat": 41.4231633, "lon": 2.1859429, "tags": {"amenity": "drinking_water"}}, {"type": "node", "id": 4726092890, "lat": 41.4190129, "lon": 2.1762308, "tags": {"amenity": "drinking_water"}}, {"type": "node", "id": 4727919789, "lat": 41.3852779, "lon": 2.1420025, "tags": {"amenity": "drinking_water"}}, {"type": "node", "id": 4727974995, "lat": 41.4034918, "lon": 2.1824785, "tags": {"amenity": "drinking_water"}}, {"type": "node", "id": 4728122289, "lat": 41.410451, "lon": 2.1796925, "tags": {"amenity": "drinking_water"}}, {"type": "node", "id": 4729342895, "lat": 41.4189771, "lon": 2.1702296, "tags": {"amenity": "drinking_water"}}, {"type": "node", "id": 4729342992, "lat": 41.4179139, "lon": 2.1760549, "tags": {"amenity": "drinking_water"}}, {"type": "node", "id": 4729374089, "lat": 41.4194097, "lon": 2.1681197, "tags": {"amenity": "drinking_water"}}, {"type": "node", "id": 4729495592, "lat": 41.3754052, "lon": 2.1607623, "tags": {"amenity": "drinking_water", "wheelchair": "limited"}}, {"type": "node", "id": 4736526630, "lat": 41.3928437, "lon": 2.1828202, "tags": {"amenity": "drinking_water"}}, {"type": "node", "id": 4737938831, "lat": 41.3783791, "lon": 2.189866, "tags": {"amenity": "drinking_water"}}, {"type": "node", "id": 4739924251, "lat": 41.4032093, "lon": 2.1886617, "tags": {"amenity": "drinking_water"}}, {"type": "node", "id": 4751356746, "lat": 41.3867256, "lon": 2.132163, "tags": {"amenity": "drinking_water"}}, {"type": "node", "id": 4756963839, "lat": 41.4036066, "lon": 2.1304518, "tags": {"amenity": "drinking_water"}}, {"type": "node", "id": 4762917584, "lat": 41.375954, "lon": 2.0917566, "tags": {"amenity": "drinking_water"}}, {"type": "node", "id": 4767532121, "lat": 41.3912466, "lon": 2.1734441, "tags": {"amenity": "drinking_water"}}, {"type": "node", "id": 4771774428, "lat": 41.4015996, "lon": 2.1563834, "tags": {"amenity": "drinking_water", "wheelchair": "yes"}}, {"type": "node", "id": 4773214327, "lat": 41.3879289, "lon": 2.1805961, "tags": {"amenity": "drinking_water", "name": "Font Modernista", "name:ca": "Font Modernista"}}, {"type": "node", "id": 4774100730, "lat": 41.400189, "lon": 2.1775516, "tags": {"amenity": "drinking_water"}}, {"type": "node", "id": 4775071297, "lat": 41.3898866, "lon": 2.1828806, "tags": {"amenity": "drinking_water", "image": "https://europeanwaterproject.org/photos/2020/EWP4775071297.jpg"}}, {"type": "node", "id": 4777153921, "lat": 41.3890032, "lon": 2.1867837, "tags": {"amenity": "drinking_water", "image": "https://europeanwaterproject.org/photos/2020/EWP4777153921.jpg"}}, {"type": "node", "id": 4777170521, "lat": 41.3943231, "lon": 2.1845654, "tags": {"amenity": "drinking_water"}}, {"type": "node", "id": 4783719423, "lat": 41.3893912, "lon": 2.1678743, "tags": {"amenity": "drinking_water"}}, {"type": "node", "id": 4784228555, "lat": 41.3972668, "lon": 2.1721178, "tags": {"amenity": "drinking_water"}}, {"type": "node", "id": 4784228952, "lat": 41.386203, "lon": 2.1721274, "tags": {"amenity": "drinking_water"}}, {"type": "node", "id": 4788596722, "lat": 41.3896101, "lon": 2.1812789, "tags": {"amenity": "drinking_water"}}, {"type": "node", "id": 4788623621, "lat": 41.3868181, "lon": 2.1818603, "tags": {"amenity": "drinking_water"}}, {"type": "node", "id": 4789136747, "lat": 41.4177271, "lon": 2.1584731, "tags": {"amenity": "drinking_water"}}, {"type": "node", "id": 4789137383, "lat": 41.4169726, "lon": 2.1588698, "tags": {"amenity": "drinking_water"}}, {"type": "node", "id": 4789823870, "lat": 41.3805832, "lon": 2.1707524, "tags": {"amenity": "drinking_water"}}, {"type": "node", "id": 4790256122, "lat": 41.3833389, "lon": 2.187259, "tags": {"amenity": "drinking_water"}}, {"type": "node", "id": 4790460629, "lat": 41.4072721, "lon": 2.1511439, "tags": {"amenity": "water_point"}}, {"type": "node", "id": 4791132323, "lat": 41.3976235, "lon": 2.1785876, "tags": {"amenity": "drinking_water"}}, {"type": "node", "id": 4791946822, "lat": 41.3948948, "lon": 2.1913971, "tags": {"amenity": "drinking_water"}}, {"type": "node", "id": 4791960421, "lat": 41.3964298, "lon": 2.1915323, "tags": {"amenity": "drinking_water"}}, {"type": "node", "id": 4803370134, "lat": 41.4158018, "lon": 2.0972937, "tags": {"amenity": "drinking_water"}}, {"type": "node", "id": 4804203376, "lat": 41.3854219, "lon": 2.1745564, "tags": {"amenity": "drinking_water"}}, {"type": "node", "id": 4814904422, "lat": 41.3861069, "lon": 2.1652598, "tags": {"amenity": "drinking_water"}}, {"type": "node", "id": 4825443532, "lat": 41.3685562, "lon": 2.1498066, "tags": {"amenity": "drinking_water"}}, {"type": "node", "id": 4833342647, "lat": 41.3676996, "lon": 2.1479683, "tags": {"amenity": "drinking_water"}}, {"type": "node", "id": 4848308957, "lat": 41.4372032, "lon": 2.1591015, "tags": {"amenity": "drinking_water"}}, {"type": "node", "id": 4848308958, "lat": 41.4331586, "lon": 2.1608405, "tags": {"amenity": "drinking_water"}}, {"type": "node", "id": 4849846821, "lat": 41.3764672, "lon": 2.1830194, "tags": {"amenity": "drinking_water"}}, {"type": "node", "id": 4849909424, "lat": 41.396747, "lon": 2.2093517, "tags": {"amenity": "drinking_water", "ref": "10-208"}}, {"type": "node", "id": 4850110121, "lat": 41.383848, "lon": 2.195187, "tags": {"amenity": "drinking_water"}}, {"type": "node", "id": 4850200621, "lat": 41.3842374, "lon": 2.1688031, "tags": {"amenity": "drinking_water"}}, {"type": "node", "id": 4860084727, "lat": 41.4189256, "lon": 2.171776, "tags": {"amenity": "drinking_water"}}, {"type": "node", "id": 4861472022, "lat": 41.418793, "lon": 2.1719447, "tags": {"amenity": "drinking_water"}}, {"type": "node", "id": 4861472026, "lat": 41.4186197, "lon": 2.1765764, "tags": {"amenity": "drinking_water"}}, {"type": "node", "id": 4866333121, "lat": 41.3804359, "lon": 2.1830687, "tags": {"amenity": "drinking_water"}}, {"type": "node", "id": 4866407421, "lat": 41.3806009, "lon": 2.1920266, "tags": {"amenity": "drinking_water"}}, {"type": "node", "id": 4878360622, "lat": 41.3797593, "lon": 2.1881241, "tags": {"amenity": "drinking_water"}}, {"type": "node", "id": 4880020521, "lat": 41.3726121, "lon": 2.1793318, "tags": {"amenity": "drinking_water"}}, {"type": "node", "id": 4886263821, "lat": 41.3837322, "lon": 2.1611348, "tags": {"amenity": "drinking_water"}}, {"type": "node", "id": 4887090122, "lat": 41.4018801, "lon": 2.1842791, "tags": {"amenity": "drinking_water"}}, {"type": "node", "id": 4925013567, "lat": 41.407809, "lon": 2.0608613, "tags": {"amenity": "drinking_water", "bottle": "yes", "name": "Font d'en Marc o Font de Can Marc"}}, {"type": "node", "id": 4937455921, "lat": 41.400816, "lon": 2.1745843, "tags": {"amenity": "drinking_water"}}, {"type": "node", "id": 4938154088, "lat": 41.4038515, "lon": 2.1482777, "tags": {"amenity": "drinking_water"}}, {"type": "node", "id": 4941889425, "lat": 41.4135266, "lon": 2.1713811, "tags": {"amenity": "drinking_water"}}, {"type": "node", "id": 4941903621, "lat": 41.4150455, "lon": 2.1725781, "tags": {"amenity": "drinking_water"}}, {"type": "node", "id": 4955174021, "lat": 41.4125243, "lon": 2.1605327, "tags": {"amenity": "drinking_water", "name:fr": "Eau potable"}}, {"type": "node", "id": 4955199921, "lat": 41.4077231, "lon": 2.1677813, "tags": {"amenity": "drinking_water", "name:fr": "Eau potable"}}, {"type": "node", "id": 4955199924, "lat": 41.4052803, "lon": 2.1706927, "tags": {"amenity": "drinking_water", "name:fr": "Eau potable"}}, {"type": "node", "id": 4957594523, "lat": 41.3574721, "lon": 2.1417991, "tags": {"amenity": "drinking_water"}}, {"type": "node", "id": 4960003622, "lat": 41.4018002, "lon": 2.1409622, "tags": {"amenity": "drinking_water"}}, {"type": "node", "id": 4960571921, "lat": 41.3767729, "lon": 2.1390191, "tags": {"amenity": "drinking_water"}}, {"type": "node", "id": 4976703822, "lat": 41.399246, "lon": 2.1785803, "tags": {"amenity": "drinking_water"}}, {"type": "node", "id": 4979454521, "lat": 41.4383943, "lon": 2.1872653, "tags": {"amenity": "water_point"}}, {"type": "node", "id": 4985051028, "lat": 41.3791758, "lon": 2.1889333, "tags": {"amenity": "drinking_water"}}, {"type": "node", "id": 4986677123, "lat": 41.382077, "lon": 2.156297, "tags": {"amenity": "drinking_water"}}, {"type": "node", "id": 4998307655, "lat": 41.4012507, "lon": 2.1670154, "tags": {"amenity": "drinking_water"}}, {"type": "node", "id": 4999419246, "lat": 41.4206327, "lon": 2.167249, "tags": {"amenity": "drinking_water"}}, {"type": "node", "id": 4999449265, "lat": 41.4181579, "lon": 2.1566528, "tags": {"amenity": "drinking_water", "wheelchair": "yes"}}, {"type": "node", "id": 5001908962, "lat": 41.3747736, "lon": 2.1671243, "tags": {"amenity": "drinking_water", "fee": "no"}}, {"type": "node", "id": 5001917131, "lat": 41.3729398, "lon": 2.1566196, "tags": {"amenity": "drinking_water"}}, {"type": "node", "id": 5006857818, "lat": 41.415031, "lon": 2.1658016, "tags": {"amenity": "drinking_water"}}, {"type": "node", "id": 5018062321, "lat": 41.3912054, "lon": 2.2013478, "tags": {"amenity": "water_point"}}, {"type": "node", "id": 5018172524, "lat": 41.3900991, "lon": 2.2007586, "tags": {"amenity": "water_point"}}, {"type": "node", "id": 5018221166, "lat": 41.4165886, "lon": 2.1990164, "tags": {"amenity": "drinking_water"}}, {"type": "node", "id": 5028877423, "lat": 41.3967, "lon": 2.1688413, "tags": {"amenity": "water_point"}}, {"type": "node", "id": 5028897622, "lat": 41.3934997, "lon": 2.1710607, "tags": {"amenity": "water_point"}}, {"type": "node", "id": 5028911721, "lat": 41.3951808, "lon": 2.1685168, "tags": {"amenity": "water_point"}}, {"type": "node", "id": 5028919021, "lat": 41.392479, "lon": 2.1718478, "tags": {"amenity": "drinking_water"}}, {"type": "node", "id": 5028935822, "lat": 41.4051743, "lon": 2.20102, "tags": {"amenity": "water_point"}}, {"type": "node", "id": 5030568924, "lat": 41.4113811, "lon": 2.1789328, "tags": {"amenity": "water_point"}}, {"type": "node", "id": 5042064368, "lat": 41.3841107, "lon": 2.1710774, "tags": {"amenity": "drinking_water"}}, {"type": "node", "id": 5049014822, "lat": 41.4020276, "lon": 2.1599132, "tags": {"amenity": "drinking_water"}}, {"type": "node", "id": 5054228821, "lat": 41.3697677, "lon": 2.1372145, "tags": {"amenity": "drinking_water"}}, {"type": "node", "id": 5058587925, "lat": 41.378029, "lon": 2.1507253, "tags": {"amenity": "water_point"}}, {"type": "node", "id": 5059292823, "lat": 41.3744304, "lon": 2.1380281, "tags": {"amenity": "water_point"}}, {"type": "node", "id": 5059311122, "lat": 41.3741124, "lon": 2.1475582, "tags": {"amenity": "water_point"}}, {"type": "node", "id": 5059314121, "lat": 41.3703753, "lon": 2.1388419, "tags": {"amenity": "water_point"}}, {"type": "node", "id": 5069555555, "lat": 41.456809, "lon": 2.1954441, "tags": {"amenity": "drinking_water"}}, {"type": "node", "id": 5073780021, "lat": 41.4022052, "lon": 2.165758, "tags": {"amenity": "water_point"}}, {"type": "node", "id": 5074114922, "lat": 41.4030961, "lon": 2.1679649, "tags": {"amenity": "water_point"}}, {"type": "node", "id": 5076868752, "lat": 41.3600702, "lon": 2.1575125, "tags": {"amenity": "drinking_water"}}, {"type": "node", "id": 5092102765, "lat": 41.3901414, "lon": 2.0727823, "tags": {"amenity": "drinking_water"}}, {"type": "node", "id": 5092102986, "lat": 41.3876382, "lon": 2.0727471, "tags": {"amenity": "drinking_water"}}, {"type": "node", "id": 5110775425, "lat": 41.3782557, "lon": 2.1488088, "tags": {"amenity": "drinking_water"}}, {"type": "node", "id": 5126294816, "lat": 41.3849707, "lon": 2.1526652, "tags": {"amenity": "drinking_water", "wheelchair": "limited"}}, {"type": "node", "id": 5169512268, "lat": 41.4125982, "lon": 2.2249849, "tags": {"amenity": "drinking_water"}}, {"type": "node", "id": 5198014884, "lat": 41.3950362, "lon": 2.1755751, "tags": {"amenity": "drinking_water"}}, {"type": "node", "id": 5217067223, "lat": 41.3876359, "lon": 2.111471, "tags": {"amenity": "water_point"}}, {"type": "node", "id": 5217086521, "lat": 41.3879017, "lon": 2.1115638, "tags": {"amenity": "drinking_water"}}, {"type": "node", "id": 5221702722, "lat": 41.3853717, "lon": 2.1426609, "tags": {"amenity": "drinking_water"}}, {"type": "node", "id": 5221704323, "lat": 41.3880267, "lon": 2.1434147, "tags": {"amenity": "drinking_water"}}, {"type": "node", "id": 5221733823, "lat": 41.3905751, "lon": 2.1449212, "tags": {"amenity": "drinking_water"}}, {"type": "node", "id": 5221784522, "lat": 41.3971845, "lon": 2.183284, "tags": {"amenity": "drinking_water"}}, {"type": "node", "id": 5235016524, "lat": 41.4089022, "lon": 2.169602, "tags": {"amenity": "drinking_water"}}, {"type": "node", "id": 5269890285, "lat": 41.4095302, "lon": 2.1502866, "tags": {"amenity": "drinking_water"}}, {"type": "node", "id": 5286293323, "lat": 41.393363, "lon": 2.1503652, "tags": {"amenity": "drinking_water"}}, {"type": "node", "id": 5286461226, "lat": 41.4033661, "lon": 2.1706509, "tags": {"amenity": "drinking_water"}}, {"type": "node", "id": 5299213221, "lat": 41.3845538, "lon": 2.1741986, "tags": {"amenity": "drinking_water"}}, {"type": "node", "id": 5303267327, "lat": 41.4088008, "lon": 2.1732529, "tags": {"amenity": "drinking_water"}}, {"type": "node", "id": 5310680822, "lat": 41.3752607, "lon": 2.1463243, "tags": {"amenity": "drinking_water"}}, {"type": "node", "id": 5310680823, "lat": 41.3753336, "lon": 2.1416257, "tags": {"amenity": "drinking_water"}}, {"type": "node", "id": 5310695121, "lat": 41.3753993, "lon": 2.1380943, "tags": {"amenity": "drinking_water"}}, {"type": "node", "id": 5316296722, "lat": 41.372902, "lon": 2.1162575, "tags": {"amenity": "drinking_water"}}, {"type": "node", "id": 5316296723, "lat": 41.3748787, "lon": 2.1177013, "tags": {"amenity": "drinking_water"}}, {"type": "node", "id": 5318105181, "lat": 41.3568397, "lon": 2.1243094, "tags": {"amenity": "drinking_water"}}, {"type": "node", "id": 5318105182, "lat": 41.3564453, "lon": 2.1259241, "tags": {"amenity": "drinking_water"}}, {"type": "node", "id": 5318105183, "lat": 41.3612938, "lon": 2.1223688, "tags": {"amenity": "drinking_water"}}, {"type": "node", "id": 5319281340, "lat": 41.3820352, "lon": 2.1494229, "tags": {"amenity": "drinking_water"}}, {"type": "node", "id": 5319764224, "lat": 41.3677869, "lon": 2.1046917, "tags": {"amenity": "drinking_water"}}, {"type": "node", "id": 5319764225, "lat": 41.3685067, "lon": 2.106026, "tags": {"amenity": "drinking_water"}}, {"type": "node", "id": 5319764226, "lat": 41.3682756, "lon": 2.1051447, "tags": {"amenity": "drinking_water"}}, {"type": "node", "id": 5319764227, "lat": 41.367014, "lon": 2.1063834, "tags": {"amenity": "drinking_water"}}, {"type": "node", "id": 5320257510, "lat": 41.3769602, "lon": 2.0904102, "tags": {"amenity": "drinking_water"}}, {"type": "node", "id": 5331242817, "lat": 41.386367, "lon": 2.113257, "tags": {"amenity": "drinking_water"}}, {"type": "node", "id": 5331242818, "lat": 41.3865199, "lon": 2.1138364, "tags": {"amenity": "drinking_water"}}, {"type": "node", "id": 5343184870, "lat": 41.4177437, "lon": 2.1697186, "tags": {"amenity": "drinking_water"}}, {"type": "node", "id": 5347075121, "lat": 41.4261926, "lon": 2.1739126, "tags": {"amenity": "drinking_water"}}, {"type": "node", "id": 5382496222, "lat": 41.4175471, "lon": 2.1787281, "tags": {"amenity": "drinking_water"}}, {"type": "node", "id": 5387442250, "lat": 41.4071877, "lon": 2.1757288, "tags": {"amenity": "drinking_water"}}, {"type": "node", "id": 5388850522, "lat": 41.364043, "lon": 2.1076586, "tags": {"amenity": "drinking_water"}}, {"type": "node", "id": 5390655031, "lat": 41.4053323, "lon": 2.1780256, "tags": {"amenity": "drinking_water"}}, {"type": "node", "id": 5403244321, "lat": 41.4023876, "lon": 2.172641, "tags": {"amenity": "drinking_water"}}, {"type": "node", "id": 5403266921, "lat": 41.4108881, "lon": 2.1702597, "tags": {"amenity": "drinking_water"}}, {"type": "node", "id": 5404661529, "lat": 41.3869907, "lon": 2.1695515, "tags": {"amenity": "drinking_water"}}, {"type": "node", "id": 5404664105, "lat": 41.3874122, "lon": 2.1701957, "tags": {"amenity": "drinking_water"}}, {"type": "node", "id": 5405714009, "lat": 41.3773681, "lon": 2.1404346, "tags": {"amenity": "drinking_water"}}, {"type": "node", "id": 5406520693, "lat": 41.3731025, "lon": 2.1442494, "tags": {"amenity": "water_point"}}, {"type": "node", "id": 5406763271, "lat": 41.3728345, "lon": 2.1511013, "tags": {"amenity": "drinking_water"}}, {"type": "node", "id": 5406763272, "lat": 41.3731976, "lon": 2.1508551, "tags": {"amenity": "drinking_water"}}, {"type": "node", "id": 5406763273, "lat": 41.3739213, "lon": 2.1494047, "tags": {"amenity": "drinking_water"}}, {"type": "node", "id": 5417380099, "lat": 41.425009, "lon": 2.1602253, "tags": {"amenity": "drinking_water"}}, {"type": "node", "id": 5420950722, "lat": 41.4087433, "lon": 2.1800451, "tags": {"amenity": "drinking_water"}}, {"type": "node", "id": 5469126826, "lat": 41.4063709, "lon": 2.1620916, "tags": {"amenity": "drinking_water"}}, {"type": "node", "id": 5474037984, "lat": 41.3723284, "lon": 2.1735752, "tags": {"amenity": "drinking_water"}}, {"type": "node", "id": 5474037985, "lat": 41.3686003, "lon": 2.1720733, "tags": {"amenity": "drinking_water"}}, {"type": "node", "id": 5474037986, "lat": 41.3659117, "lon": 2.1707764, "tags": {"amenity": "drinking_water"}}, {"type": "node", "id": 5484292322, "lat": 41.3973809, "lon": 2.1764694, "tags": {"amenity": "drinking_water"}}, {"type": "node", "id": 5485540650, "lat": 41.3988089, "lon": 2.1531218, "tags": {"amenity": "drinking_water", "artist_name": "Josep Manuel Benedicto", "artwork_type": "sculpture", "material": "bronze", "name": "Font de Blancaneu", "start_date": "1947", "tourism": "artwork", "wikimedia_commons": "Category:Font de Blancaneu"}}, {"type": "node", "id": 5510428122, "lat": 41.394044, "lon": 2.2058719, "tags": {"amenity": "drinking_water"}}, {"type": "node", "id": 5510428721, "lat": 41.3919903, "lon": 2.20433, "tags": {"amenity": "drinking_water"}}, {"type": "node", "id": 5513264598, "lat": 41.3895224, "lon": 2.1789579}, {"type": "node", "id": 5513264599, "lat": 41.3895047, "lon": 2.1789642}, {"type": "node", "id": 5513264600, "lat": 41.3895048, "lon": 2.1789684}, {"type": "node", "id": 5513264601, "lat": 41.38952, "lon": 2.1789548}, {"type": "node", "id": 5513264602, "lat": 41.3895169, "lon": 2.1789529}, {"type": "node", "id": 5513264603, "lat": 41.3895136, "lon": 2.1789525}, {"type": "node", "id": 5513264604, "lat": 41.3895103, "lon": 2.1789537}, {"type": "node", "id": 5513264605, "lat": 41.3895075, "lon": 2.1789563}, {"type": "node", "id": 5513264606, "lat": 41.3895056, "lon": 2.1789599}, {"type": "node", "id": 5513264607, "lat": 41.389506, "lon": 2.1789723}, {"type": "node", "id": 5513264608, "lat": 41.389508, "lon": 2.1789755}, {"type": "node", "id": 5513264609, "lat": 41.3895107, "lon": 2.1789777}, {"type": "node", "id": 5513264610, "lat": 41.3895137, "lon": 2.1789786}, {"type": "node", "id": 5513264611, "lat": 41.3895169, "lon": 2.1789783}, {"type": "node", "id": 5513264612, "lat": 41.3895197, "lon": 2.1789766}, {"type": "node", "id": 5513264613, "lat": 41.3895221, "lon": 2.1789738}, {"type": "node", "id": 5513264614, "lat": 41.3895236, "lon": 2.1789702}, {"type": "node", "id": 5513264615, "lat": 41.3895242, "lon": 2.1789661}, {"type": "node", "id": 5513291791, "lat": 41.3892681, "lon": 2.1858971, "tags": {"amenity": "drinking_water"}}, {"type": "node", "id": 5537610021, "lat": 41.4192687, "lon": 2.1779534, "tags": {"amenity": "drinking_water"}}, {"type": "node", "id": 5545849721, "lat": 41.3985263, "lon": 2.2095547, "tags": {"amenity": "drinking_water"}}, {"type": "node", "id": 5546040421, "lat": 41.4077846, "lon": 2.2017656, "tags": {"amenity": "drinking_water"}}, {"type": "node", "id": 5550471922, "lat": 41.4060094, "lon": 2.1829433, "tags": {"amenity": "drinking_water"}}, {"type": "node", "id": 5550627021, "lat": 41.4049939, "lon": 2.1907173, "tags": {"amenity": "drinking_water", "wheelchair": "yes"}}, {"type": "node", "id": 5550666821, "lat": 41.4048904, "lon": 2.1978245, "tags": {"amenity": "drinking_water"}}, {"type": "node", "id": 5552069659, "lat": 41.3963786, "lon": 2.1801911, "tags": {"amenity": "drinking_water"}}, {"type": "node", "id": 5552089055, "lat": 41.3960757, "lon": 2.1744512, "tags": {"amenity": "drinking_water"}}, {"type": "node", "id": 5552143954, "lat": 41.4074199, "lon": 2.1660016, "tags": {"amenity": "drinking_water"}}, {"type": "node", "id": 5577239548, "lat": 41.39725, "lon": 2.0739641, "tags": {"amenity": "drinking_water", "bottle": "yes"}}, {"type": "node", "id": 5583949421, "lat": 41.4036076, "lon": 2.2049707, "tags": {"amenity": "drinking_water"}}, {"type": "node", "id": 5600372827, "lat": 41.4123806, "lon": 2.1594935, "tags": {"amenity": "drinking_water"}}, {"type": "node", "id": 5600400821, "lat": 41.4104228, "lon": 2.1584363, "tags": {"amenity": "drinking_water"}}, {"type": "node", "id": 5600424622, "lat": 41.4105497, "lon": 2.175641, "tags": {"amenity": "drinking_water"}}, {"type": "node", "id": 5658501621, "lat": 41.3898852, "lon": 2.1881447, "tags": {"amenity": "drinking_water"}}, {"type": "node", "id": 5658715540, "lat": 41.3887963, "lon": 2.1878937, "tags": {"amenity": "drinking_water"}}, {"type": "node", "id": 5658715824, "lat": 41.3883522, "lon": 2.1897425, "tags": {"amenity": "drinking_water"}}, {"type": "node", "id": 5658941923, "lat": 41.3858392, "lon": 2.1892726, "tags": {"amenity": "drinking_water"}}, {"type": "node", "id": 5658954221, "lat": 41.3874153, "lon": 2.1907543, "tags": {"amenity": "drinking_water"}}, {"type": "node", "id": 5689895709, "lat": 41.3893094, "lon": 2.1604645, "tags": {"amenity": "drinking_water", "wheelchair": "no"}}, {"type": "node", "id": 5717135521, "lat": 41.4076207, "lon": 2.1834222, "tags": {"amenity": "drinking_water"}}, {"type": "node", "id": 5717969424, "lat": 41.4116171, "lon": 2.1815054, "tags": {"amenity": "drinking_water"}}, {"type": "node", "id": 5724228721, "lat": 41.3722989, "lon": 2.1623564, "tags": {"amenity": "drinking_water", "bottle": "yes", "wheelchair": "yes"}}, {"type": "node", "id": 5741748422, "lat": 41.3841199, "lon": 2.1585839, "tags": {"amenity": "drinking_water", "image": "https://europeanwaterproject.org/photos/2020/EWP5741748422.jpg", "wheelchair": "limited"}}, {"type": "node", "id": 5766196554, "lat": 41.3746278, "lon": 2.1465861, "tags": {"amenity": "drinking_water"}}, {"type": "node", "id": 5772514753, "lat": 41.3948033, "lon": 2.1730506, "tags": {"amenity": "water_point"}}, {"type": "node", "id": 5790147053, "lat": 41.4138944, "lon": 2.1835291, "tags": {"amenity": "water_point"}}, {"type": "node", "id": 5790278330, "lat": 41.4245647, "lon": 2.0804053, "tags": {"amenity": "drinking_water"}}, {"type": "node", "id": 5792243585, "lat": 41.394786, "lon": 2.1729813, "tags": {"amenity": "drinking_water"}}, {"type": "node", "id": 5820816956, "lat": 41.4360349, "lon": 2.1912514, "tags": {"amenity": "drinking_water"}}, {"type": "node", "id": 5840127935, "lat": 41.4288462, "lon": 2.1300009, "tags": {"amenity": "drinking_water"}}, {"type": "node", "id": 5854531385, "lat": 41.3794912, "lon": 2.1504169, "tags": {"amenity": "drinking_water"}}, {"type": "node", "id": 5854903285, "lat": 41.3795744, "lon": 2.1482781, "tags": {"amenity": "drinking_water", "image": "https://europeanwaterproject.org/photos/2020/EWP5854903285.jpg"}}, {"type": "node", "id": 5873780940, "lat": 41.4194101, "lon": 2.1271594, "tags": {"amenity": "drinking_water"}}, {"type": "node", "id": 5873814685, "lat": 41.3920854, "lon": 2.1743291, "tags": {"amenity": "drinking_water"}}, {"type": "node", "id": 5921183985, "lat": 41.4122991, "lon": 2.1539054, "tags": {"amenity": "drinking_water"}}, {"type": "node", "id": 5936853223, "lat": 41.3849651, "lon": 2.1573704, "tags": {"amenity": "drinking_water"}}, {"type": "node", "id": 5949027186, "lat": 41.4158419, "lon": 2.1020307, "tags": {"amenity": "drinking_water"}}, {"type": "node", "id": 5958681586, "lat": 41.4120532, "lon": 2.1909094, "tags": {"amenity": "drinking_water"}}, {"type": "node", "id": 5971679485, "lat": 41.3958765, "lon": 2.1951368, "tags": {"amenity": "drinking_water"}}, {"type": "node", "id": 6002265453, "lat": 41.4432096, "lon": 2.1889932, "tags": {"amenity": "drinking_water"}}, {"type": "node", "id": 6002298976, "lat": 41.437628, "lon": 2.1892763, "tags": {"amenity": "drinking_water"}}, {"type": "node", "id": 6053299749, "lat": 41.4006393, "lon": 2.2051607, "tags": {"amenity": "drinking_water", "indoor": "no"}}, {"type": "node", "id": 6058314146, "lat": 41.4176688, "lon": 2.1342611, "tags": {"amenity": "drinking_water"}}, {"type": "node", "id": 6099087173, "lat": 41.3883073, "lon": 2.1133871, "tags": {"amenity": "drinking_water"}}, {"type": "node", "id": 6126216388, "lat": 41.4077246, "lon": 2.150304, "tags": {"amenity": "drinking_water"}}, {"type": "node", "id": 6130638052, "lat": 41.3768767, "lon": 2.1000705, "tags": {"amenity": "drinking_water"}}, {"type": "node", "id": 6130638053, "lat": 41.3769007, "lon": 2.1000705, "tags": {"amenity": "drinking_water"}}, {"type": "node", "id": 6130638054, "lat": 41.3774568, "lon": 2.1001571, "tags": {"amenity": "drinking_water"}}, {"type": "node", "id": 6130638055, "lat": 41.3774201, "lon": 2.1001555, "tags": {"amenity": "drinking_water"}}, {"type": "node", "id": 6140191885, "lat": 41.4085244, "lon": 2.1711213, "tags": {"amenity": "drinking_water"}}, {"type": "node", "id": 6222663441, "lat": 41.3968992, "lon": 2.125078, "tags": {"amenity": "drinking_water"}}, {"type": "node", "id": 6230239352, "lat": 41.3737541, "lon": 2.161724, "tags": {"amenity": "drinking_water"}}, {"type": "node", "id": 6294406163, "lat": 41.3756516, "lon": 2.1404929, "tags": {"amenity": "drinking_water"}}, {"type": "node", "id": 6302948545, "lat": 41.4484715, "lon": 2.1731044, "tags": {"amenity": "drinking_water"}}, {"type": "node", "id": 6339323986, "lat": 41.3984138, "lon": 2.1626765, "tags": {"amenity": "drinking_water"}}, {"type": "node", "id": 6341171285, "lat": 41.3566756, "lon": 2.1258712, "tags": {"amenity": "drinking_water"}}, {"type": "node", "id": 6341171485, "lat": 41.3596459, "lon": 2.1332125, "tags": {"amenity": "drinking_water", "wheelchair": "yes"}}, {"type": "node", "id": 6341171488, "lat": 41.3604745, "lon": 2.1412056, "tags": {"amenity": "drinking_water"}}, {"type": "node", "id": 6356110690, "lat": 41.4055006, "lon": 2.1354372, "tags": {"amenity": "drinking_water"}}, {"type": "node", "id": 6356178885, "lat": 41.406018, "lon": 2.1490007, "tags": {"amenity": "drinking_water"}}, {"type": "node", "id": 6387292486, "lat": 41.4024197, "lon": 2.1401243, "tags": {"amenity": "drinking_water"}}, {"type": "node", "id": 6387301096, "lat": 41.4018485, "lon": 2.1413285, "tags": {"amenity": "drinking_water"}}, {"type": "node", "id": 6387470290, "lat": 41.4163393, "lon": 2.1757575, "tags": {"amenity": "drinking_water"}}, {"type": "node", "id": 6417402985, "lat": 41.3913936, "lon": 2.134642, "tags": {"amenity": "drinking_water"}}, {"type": "node", "id": 6417414685, "lat": 41.393643, "lon": 2.1380066, "tags": {"amenity": "drinking_water"}}, {"type": "node", "id": 6417496398, "lat": 41.3944833, "lon": 2.1414488, "tags": {"amenity": "drinking_water"}}, {"type": "node", "id": 6417496499, "lat": 41.3942882, "lon": 2.1406744, "tags": {"amenity": "drinking_water"}}, {"type": "node", "id": 6417496585, "lat": 41.3952662, "lon": 2.1410697, "tags": {"amenity": "drinking_water"}}, {"type": "node", "id": 6420370487, "lat": 41.4062729, "lon": 2.1868777, "tags": {"amenity": "drinking_water"}}, {"type": "node", "id": 6420370489, "lat": 41.4074806, "lon": 2.1868751, "tags": {"amenity": "drinking_water"}}, {"type": "node", "id": 6420490092, "lat": 41.4301845, "lon": 2.1612181, "tags": {"amenity": "drinking_water"}}, {"type": "node", "id": 6420542389, "lat": 41.4279114, "lon": 2.1645482, "tags": {"amenity": "drinking_water"}}, {"type": "node", "id": 6420542392, "lat": 41.4276647, "lon": 2.1670387, "tags": {"amenity": "drinking_water"}}, {"type": "node", "id": 6420556871, "lat": 41.4236641, "lon": 2.1779102, "tags": {"amenity": "drinking_water"}}, {"type": "node", "id": 6420565897, "lat": 41.4177643, "lon": 2.1808318, "tags": {"amenity": "drinking_water"}}, {"type": "node", "id": 6447255385, "lat": 41.3886736, "lon": 2.1321673, "tags": {"amenity": "drinking_water"}}, {"type": "node", "id": 6475523692, "lat": 41.43038, "lon": 2.1385631, "tags": {"amenity": "drinking_water"}}, {"type": "node", "id": 6488391786, "lat": 41.4145512, "lon": 2.1465867, "tags": {"amenity": "drinking_water"}}, {"type": "node", "id": 6509451166, "lat": 41.3810823, "lon": 2.096955, "tags": {"amenity": "drinking_water"}}, {"type": "node", "id": 6531983249, "lat": 41.3986103, "lon": 2.1730776, "tags": {"amenity": "drinking_water"}}, {"type": "node", "id": 6554618085, "lat": 41.401483, "lon": 2.1875659, "tags": {"amenity": "drinking_water"}}, {"type": "node", "id": 6588787543, "lat": 41.3827888, "lon": 2.1795126, "tags": {"amenity": "drinking_water", "wheelchair": "yes"}}, {"type": "node", "id": 6589797812, "lat": 41.4402197, "lon": 2.1830484, "tags": {"amenity": "drinking_water"}}, {"type": "node", "id": 6596311011, "lat": 41.4355596, "lon": 2.0898028, "tags": {"amenity": "drinking_water"}}, {"type": "node", "id": 6598298749, "lat": 41.4405354, "lon": 2.1828666, "tags": {"amenity": "drinking_water", "wheelchair": "yes"}}, {"type": "node", "id": 6598298750, "lat": 41.4410761, "lon": 2.1834836, "tags": {"amenity": "drinking_water", "wheelchair": "yes"}}, {"type": "node", "id": 6646072994, "lat": 41.3757772, "lon": 2.1218982, "tags": {"amenity": "drinking_water"}}, {"type": "node", "id": 6646836820, "lat": 41.4225188, "lon": 2.1420005, "tags": {"amenity": "drinking_water"}}, {"type": "node", "id": 6650729093, "lat": 41.3821468, "lon": 2.1678456, "tags": {"amenity": "water_point"}}, {"type": "node", "id": 6652601272, "lat": 41.3731828, "lon": 2.1658527, "tags": {"amenity": "drinking_water", "name": "Font"}}, {"type": "node", "id": 6660906250, "lat": 41.3657433, "lon": 2.1276323, "tags": {"access": "customers", "amenity": "drinking_water"}}, {"type": "node", "id": 6660906258, "lat": 41.3654965, "lon": 2.1278261, "tags": {"access": "customers", "amenity": "drinking_water", "covered": "yes"}}, {"type": "node", "id": 6680687874, "lat": 41.3801415, "lon": 2.1390966, "tags": {"amenity": "drinking_water"}}, {"type": "node", "id": 6680687875, "lat": 41.3858117, "lon": 2.187718, "tags": {"amenity": "drinking_water"}}, {"type": "node", "id": 6693633448, "lat": 41.4284549, "lon": 2.150069, "tags": {"access": "customers", "amenity": "drinking_water", "covered": "no", "fee": "no", "wheelchair": "limited"}}, {"type": "node", "id": 6694721501, "lat": 41.4386985, "lon": 2.1791372, "tags": {"amenity": "drinking_water"}}, {"type": "node", "id": 6702606986, "lat": 41.4330015, "lon": 2.1634801, "tags": {"amenity": "drinking_water"}}, {"type": "node", "id": 6702630987, "lat": 41.433581, "lon": 2.1652358, "tags": {"amenity": "drinking_water"}}, {"type": "node", "id": 6702631085, "lat": 41.4334358, "lon": 2.1641707, "tags": {"amenity": "drinking_water"}}, {"type": "node", "id": 6702631087, "lat": 41.4333905, "lon": 2.1664966, "tags": {"amenity": "drinking_water"}}, {"type": "node", "id": 6702631089, "lat": 41.4329533, "lon": 2.1649132, "tags": {"amenity": "drinking_water"}}, {"type": "node", "id": 6702631090, "lat": 41.4323875, "lon": 2.1652603, "tags": {"amenity": "drinking_water"}}, {"type": "node", "id": 6702677386, "lat": 41.4328156, "lon": 2.1656405, "tags": {"amenity": "drinking_water"}}, {"type": "node", "id": 6702677390, "lat": 41.4327844, "lon": 2.1676466, "tags": {"amenity": "drinking_water"}}, {"type": "node", "id": 6702688486, "lat": 41.4329684, "lon": 2.1673154, "tags": {"amenity": "drinking_water"}}, {"type": "node", "id": 6702688587, "lat": 41.4338867, "lon": 2.1661916, "tags": {"amenity": "drinking_water"}}, {"type": "node", "id": 6702688885, "lat": 41.4324674, "lon": 2.1678198, "tags": {"amenity": "drinking_water"}}, {"type": "node", "id": 6702709987, "lat": 41.4353267, "lon": 2.1684559, "tags": {"amenity": "drinking_water"}}, {"type": "node", "id": 6718195541, "lat": 41.4208793, "lon": 2.1389884, "tags": {"amenity": "drinking_water"}}, {"type": "node", "id": 6721878912, "lat": 41.3947524, "lon": 2.1126465, "tags": {"amenity": "drinking_water"}}, {"type": "node", "id": 6723598522, "lat": 41.3616327, "lon": 2.0998249, "tags": {"amenity": "drinking_water"}}, {"type": "node", "id": 6723598526, "lat": 41.361648, "lon": 2.0998265, "tags": {"amenity": "drinking_water"}}, {"type": "node", "id": 6723598530, "lat": 41.361647, "lon": 2.0998465, "tags": {"amenity": "drinking_water"}}, {"type": "node", "id": 6723598534, "lat": 41.361632, "lon": 2.0998449, "tags": {"amenity": "drinking_water"}}, {"type": "node", "id": 6731240657, "lat": 41.4260043, "lon": 2.1381484, "tags": {"amenity": "drinking_water"}}, {"type": "node", "id": 6775522750, "lat": 41.3890227, "lon": 2.1134114, "tags": {"access": "yes", "amenity": "drinking_water", "covered": "yes", "fee": "no", "wheelchair": "yes"}}, {"type": "node", "id": 6793200107, "lat": 41.4316252, "lon": 2.1413986, "tags": {"amenity": "drinking_water"}}, {"type": "node", "id": 6836794591, "lat": 41.3707381, "lon": 2.1557692, "tags": {"amenity": "drinking_water"}}, {"type": "node", "id": 6853010561, "lat": 41.3590921, "lon": 2.141257, "tags": {"amenity": "drinking_water"}}, {"type": "node", "id": 6853233888, "lat": 41.4098759, "lon": 2.1529369, "tags": {"amenity": "drinking_water"}}, {"type": "node", "id": 6853885786, "lat": 41.3899247, "lon": 2.1621651, "tags": {"amenity": "drinking_water"}}, {"type": "node", "id": 6853917287, "lat": 41.3887825, "lon": 2.1612318, "tags": {"amenity": "drinking_water"}}, {"type": "node", "id": 6853917298, "lat": 41.3880378, "lon": 2.1619569, "tags": {"amenity": "drinking_water"}}, {"type": "node", "id": 6874896285, "lat": 41.3762027, "lon": 2.1430177, "tags": {"amenity": "drinking_water", "name:pl": "Woda Pitna"}}, {"type": "node", "id": 6875208685, "lat": 41.4322366, "lon": 2.1738868, "tags": {"amenity": "drinking_water"}}, {"type": "node", "id": 6909320785, "lat": 41.4333463, "lon": 2.1533426, "tags": {"amenity": "drinking_water"}}, {"type": "node", "id": 6909370788, "lat": 41.4334618, "lon": 2.1500655, "tags": {"amenity": "water_point"}}, {"type": "node", "id": 6909436685, "lat": 41.432152, "lon": 2.1524049, "tags": {"amenity": "water_point"}}, {"type": "node", "id": 6909527887, "lat": 41.4291486, "lon": 2.1549551, "tags": {"amenity": "drinking_water"}}, {"type": "node", "id": 6909542285, "lat": 41.4274244, "lon": 2.1512993, "tags": {"amenity": "drinking_water"}}, {"type": "node", "id": 6909785385, "lat": 41.4242054, "lon": 2.1718909, "tags": {"amenity": "drinking_water"}}, {"type": "node", "id": 6917993537, "lat": 41.3926681, "lon": 2.1586482, "tags": {"amenity": "drinking_water"}}, {"type": "node", "id": 6936121093, "lat": 41.3693865, "lon": 2.1275377, "tags": {"amenity": "drinking_water"}}, {"type": "node", "id": 6938889385, "lat": 41.4328894, "lon": 2.1496142, "tags": {"amenity": "drinking_water"}}, {"type": "node", "id": 6938889686, "lat": 41.4320474, "lon": 2.1488695, "tags": {"amenity": "drinking_water"}}, {"type": "node", "id": 6938944558, "lat": 41.4215716, "lon": 2.1413984, "tags": {"amenity": "drinking_water"}}, {"type": "node", "id": 6971061090, "lat": 41.4216972, "lon": 2.1751697, "tags": {"amenity": "drinking_water"}}, {"type": "node", "id": 6971098385, "lat": 41.4163115, "lon": 2.1723082, "tags": {"amenity": "drinking_water"}}, {"type": "node", "id": 6971156186, "lat": 41.4144391, "lon": 2.1703865, "tags": {"amenity": "drinking_water"}}, {"type": "node", "id": 6976223385, "lat": 41.4034015, "lon": 2.1822765, "tags": {"amenity": "drinking_water"}}, {"type": "node", "id": 7015166612, "lat": 41.3657538, "lon": 2.1262677, "tags": {"amenity": "drinking_water"}}, {"type": "node", "id": 7021373385, "lat": 41.3687901, "lon": 2.1393889, "tags": {"amenity": "drinking_water"}}, {"type": "node", "id": 7021454885, "lat": 41.371449, "lon": 2.1404932, "tags": {"amenity": "drinking_water"}}, {"type": "node", "id": 7023147488, "lat": 41.4406921, "lon": 2.1533226, "tags": {"amenity": "drinking_water"}}, {"type": "node", "id": 7037173052, "lat": 41.4045376, "lon": 2.2069611, "tags": {"amenity": "drinking_water"}}, {"type": "node", "id": 7074384886, "lat": 41.430436, "lon": 2.1726911, "tags": {"amenity": "drinking_water"}}, {"type": "node", "id": 7074411091, "lat": 41.4595725, "lon": 2.176127, "tags": {"amenity": "drinking_water"}}, {"type": "node", "id": 7074445986, "lat": 41.4576003, "lon": 2.1851515, "tags": {"amenity": "drinking_water"}}, {"type": "node", "id": 7074466986, "lat": 41.4532323, "lon": 2.1879533, "tags": {"amenity": "drinking_water"}}, {"type": "node", "id": 7090417085, "lat": 41.4120329, "lon": 2.1431687, "tags": {"amenity": "drinking_water"}}, {"type": "node", "id": 7090417086, "lat": 41.411235, "lon": 2.1439751, "tags": {"amenity": "drinking_water"}}, {"type": "node", "id": 7090434889, "lat": 41.4099397, "lon": 2.1432208, "tags": {"amenity": "drinking_water"}}, {"type": "node", "id": 7093571255, "lat": 41.4074498, "lon": 2.1424706, "tags": {"amenity": "drinking_water"}}, {"type": "node", "id": 7097973388, "lat": 41.432895, "lon": 2.1859349, "tags": {"amenity": "drinking_water"}}, {"type": "node", "id": 7098019585, "lat": 41.4342719, "lon": 2.1867237, "tags": {"amenity": "drinking_water"}}, {"type": "node", "id": 7098019586, "lat": 41.4349543, "lon": 2.1891238, "tags": {"amenity": "drinking_water"}}, {"type": "node", "id": 7108679587, "lat": 41.4029855, "lon": 2.1168266, "tags": {"amenity": "drinking_water"}}, {"type": "node", "id": 7108860487, "lat": 41.3934228, "lon": 2.1217686, "tags": {"amenity": "drinking_water"}}, {"type": "node", "id": 7108867886, "lat": 41.391986, "lon": 2.1231879, "tags": {"amenity": "drinking_water"}}, {"type": "node", "id": 7117539395, "lat": 41.3990518, "lon": 2.1215869, "tags": {"amenity": "drinking_water", "indoor": "no"}}, {"type": "node", "id": 7135305287, "lat": 41.3735394, "lon": 2.1562911, "tags": {"amenity": "drinking_water", "name": "Fuente para beber agua potable"}}, {"type": "node", "id": 7158174858, "lat": 41.3748289, "lon": 2.1582489, "tags": {"amenity": "drinking_water", "name": "Fuente para beber agua potable"}}, {"type": "node", "id": 7158255885, "lat": 41.462565, "lon": 2.175426, "tags": {"amenity": "drinking_water"}}, {"type": "node", "id": 7158301085, "lat": 41.4600546, "lon": 2.1810885, "tags": {"amenity": "drinking_water"}}, {"type": "node", "id": 7158310285, "lat": 41.4588816, "lon": 2.1823597, "tags": {"amenity": "drinking_water"}}, {"type": "node", "id": 7158317885, "lat": 41.4574876, "lon": 2.1839709, "tags": {"amenity": "drinking_water"}}, {"type": "node", "id": 7158354085, "lat": 41.4507021, "lon": 2.1865741, "tags": {"amenity": "drinking_water"}}, {"type": "node", "id": 7158355485, "lat": 41.4502605, "lon": 2.186026, "tags": {"amenity": "drinking_water"}}, {"type": "node", "id": 7184997085, "lat": 41.3830231, "lon": 2.1251793, "tags": {"amenity": "drinking_water"}}, {"type": "node", "id": 7195505946, "lat": 41.3741171, "lon": 2.1474801, "tags": {"amenity": "drinking_water"}}, {"type": "node", "id": 7221240617, "lat": 41.4245996, "lon": 2.2030738, "tags": {"amenity": "drinking_water"}}, {"type": "node", "id": 7226952688, "lat": 41.4195189, "lon": 2.1755707, "tags": {"amenity": "drinking_water"}}, {"type": "node", "id": 7227002385, "lat": 41.4191976, "lon": 2.1704793, "tags": {"amenity": "drinking_water"}}, {"type": "node", "id": 7227002387, "lat": 41.4192654, "lon": 2.1710725, "tags": {"amenity": "drinking_water"}}, {"type": "node", "id": 7229009449, "lat": 41.4238629, "lon": 2.1654461, "tags": {"amenity": "drinking_water"}}, {"type": "node", "id": 7281328608, "lat": 41.3766772, "lon": 2.0878746, "tags": {"amenity": "drinking_water"}}, {"type": "node", "id": 7284527685, "lat": 41.4364387, "lon": 2.2083811, "tags": {"amenity": "drinking_water"}}, {"type": "node", "id": 7292375385, "lat": 41.4190418, "lon": 2.1517911, "tags": {"amenity": "drinking_water"}}, {"type": "node", "id": 7292451987, "lat": 41.4194243, "lon": 2.1516084, "tags": {"amenity": "drinking_water"}}, {"type": "node", "id": 7292491386, "lat": 41.4137595, "lon": 2.1612392, "tags": {"amenity": "drinking_water"}}, {"type": "node", "id": 7474292485, "lat": 41.3850015, "lon": 2.155049, "tags": {"amenity": "drinking_water"}}, {"type": "node", "id": 7492207417, "lat": 41.4163323, "lon": 2.2064694, "tags": {"amenity": "drinking_water"}}, {"type": "node", "id": 7503664656, "lat": 41.4212583, "lon": 2.2077692, "tags": {"amenity": "drinking_water"}}, {"type": "node", "id": 7525236986, "lat": 41.4127146, "lon": 2.1832921, "tags": {"amenity": "drinking_water"}}, {"type": "node", "id": 7525323487, "lat": 41.4213067, "lon": 2.177266, "tags": {"amenity": "drinking_water"}}, {"type": "node", "id": 7525395587, "lat": 41.419718, "lon": 2.1838333, "tags": {"amenity": "drinking_water"}}, {"type": "node", "id": 7525395886, "lat": 41.4185508, "lon": 2.1864098, "tags": {"amenity": "drinking_water"}}, {"type": "node", "id": 7530009209, "lat": 41.4071652, "lon": 2.1900672, "tags": {"amenity": "drinking_water"}}, {"type": "node", "id": 7531970413, "lat": 41.4073095, "lon": 2.1941726, "tags": {"amenity": "drinking_water"}}, {"type": "node", "id": 7547149544, "lat": 41.4138771, "lon": 2.2158116, "tags": {"amenity": "drinking_water"}}, {"type": "node", "id": 7547160453, "lat": 41.4119046, "lon": 2.2185875, "tags": {"amenity": "drinking_water"}}, {"type": "node", "id": 7547172875, "lat": 41.4136195, "lon": 2.2164214, "tags": {"amenity": "drinking_water"}}, {"type": "node", "id": 7547176664, "lat": 41.4163426, "lon": 2.2126433, "tags": {"amenity": "drinking_water"}}, {"type": "node", "id": 7547186088, "lat": 41.4131589, "lon": 2.2169973, "tags": {"amenity": "drinking_water"}}, {"type": "node", "id": 7547197790, "lat": 41.4147482, "lon": 2.2146785, "tags": {"amenity": "drinking_water"}}, {"type": "node", "id": 7547199384, "lat": 41.4167413, "lon": 2.2121001, "tags": {"amenity": "drinking_water"}}, {"type": "node", "id": 7547201506, "lat": 41.4156177, "lon": 2.2135428, "tags": {"amenity": "drinking_water"}}, {"type": "node", "id": 7547233586, "lat": 41.4215078, "lon": 2.2057732, "tags": {"amenity": "drinking_water"}}, {"type": "node", "id": 7547263516, "lat": 41.4239913, "lon": 2.2073659, "tags": {"amenity": "drinking_water"}}, {"type": "node", "id": 7547273518, "lat": 41.4248907, "lon": 2.2029624, "tags": {"amenity": "drinking_water"}}, {"type": "node", "id": 7547274100, "lat": 41.4251233, "lon": 2.2010753, "tags": {"amenity": "drinking_water"}}, {"type": "node", "id": 7547284092, "lat": 41.4253609, "lon": 2.2024038, "tags": {"amenity": "drinking_water"}}, {"type": "node", "id": 7547293099, "lat": 41.4197419, "lon": 2.2016785, "tags": {"amenity": "drinking_water"}}, {"type": "node", "id": 7547335831, "lat": 41.4183974, "lon": 2.1997281, "tags": {"amenity": "drinking_water"}}, {"type": "node", "id": 7547338593, "lat": 41.4158694, "lon": 2.1963687, "tags": {"amenity": "drinking_water"}}, {"type": "node", "id": 7547402920, "lat": 41.4092065, "lon": 2.18761, "tags": {"amenity": "drinking_water"}}, {"type": "node", "id": 7550777386, "lat": 41.4037103, "lon": 2.1664025, "tags": {"amenity": "drinking_water"}}, {"type": "node", "id": 7550777485, "lat": 41.4044988, "lon": 2.1675024, "tags": {"amenity": "drinking_water"}}, {"type": "node", "id": 7550795185, "lat": 41.4063806, "lon": 2.1598959, "tags": {"amenity": "drinking_water"}}, {"type": "node", "id": 7550813985, "lat": 41.4074149, "lon": 2.15835, "tags": {"amenity": "drinking_water"}}, {"type": "node", "id": 7550912685, "lat": 41.4026132, "lon": 2.1766812, "tags": {"amenity": "drinking_water"}}, {"type": "node", "id": 7565124287, "lat": 41.4215695, "lon": 2.164917, "tags": {"amenity": "drinking_water"}}, {"type": "node", "id": 7565156886, "lat": 41.4185307, "lon": 2.1691804, "tags": {"amenity": "drinking_water"}}, {"type": "node", "id": 7565182585, "lat": 41.4177596, "lon": 2.1695273, "tags": {"amenity": "drinking_water"}}, {"type": "node", "id": 7565199485, "lat": 41.4154493, "lon": 2.1697436, "tags": {"amenity": "drinking_water"}}, {"type": "node", "id": 7566696648, "lat": 41.465424, "lon": 2.1833381, "tags": {"amenity": "drinking_water"}}, {"type": "node", "id": 7574480385, "lat": 41.4015535, "lon": 2.1719744, "tags": {"amenity": "drinking_water"}}, {"type": "node", "id": 7574486085, "lat": 41.4000867, "lon": 2.1698491, "tags": {"amenity": "drinking_water"}}, {"type": "node", "id": 7574504785, "lat": 41.3966836, "lon": 2.1630848, "tags": {"amenity": "drinking_water"}}, {"type": "node", "id": 7574531085, "lat": 41.4046082, "lon": 2.1688672, "tags": {"amenity": "drinking_water"}}, {"type": "node", "id": 7597612585, "lat": 41.3651262, "lon": 2.1387028, "tags": {"amenity": "drinking_water"}}, {"type": "node", "id": 7597623485, "lat": 41.3665821, "lon": 2.1406055, "tags": {"amenity": "drinking_water"}}, {"type": "node", "id": 7597623685, "lat": 41.3674493, "lon": 2.141049, "tags": {"amenity": "drinking_water"}}, {"type": "node", "id": 7597643585, "lat": 41.3730441, "lon": 2.1432651, "tags": {"amenity": "drinking_water"}}, {"type": "node", "id": 7599478285, "lat": 41.4255518, "lon": 2.1842613, "tags": {"amenity": "drinking_water"}}, {"type": "node", "id": 7609632485, "lat": 41.3561968, "lon": 2.1243202, "tags": {"amenity": "drinking_water"}}, {"type": "node", "id": 7614958347, "lat": 41.3999506, "lon": 2.2140773, "tags": {"amenity": "drinking_water"}}, {"type": "node", "id": 7616019588, "lat": 41.4007527, "lon": 2.190261, "tags": {"amenity": "drinking_water"}}, {"type": "node", "id": 7680601485, "lat": 41.4656983, "lon": 2.1856161, "tags": {"amenity": "drinking_water"}}, {"type": "node", "id": 7770088892, "lat": 41.3690984, "lon": 2.1620298, "tags": {"amenity": "drinking_water"}}, {"type": "node", "id": 7772781396, "lat": 41.3973659, "lon": 2.1698415, "tags": {"amenity": "drinking_water"}}, {"type": "node", "id": 7772899120, "lat": 41.4007803, "lon": 2.1719804, "tags": {"amenity": "drinking_water"}}, {"type": "node", "id": 7772960188, "lat": 41.4020434, "lon": 2.1787656, "tags": {"amenity": "drinking_water"}}, {"type": "node", "id": 7836469162, "lat": 41.3665757, "lon": 2.1319541, "tags": {"access": "yes", "amenity": "drinking_water", "covered": "no", "fee": "no", "indoor": "no", "operator": "Ajuntament de l'Hospitalet de Llobregat"}}, {"type": "node", "id": 7836477972, "lat": 41.3639482, "lon": 2.1285164, "tags": {"access": "yes", "amenity": "drinking_water", "covered": "no", "fee": "no", "indoor": "no", "operator": "Ajuntament de l'Hospitalet de Llobregat"}}, {"type": "node", "id": 7836477973, "lat": 41.3642456, "lon": 2.1284854, "tags": {"access": "yes", "amenity": "drinking_water", "covered": "no", "fee": "no", "indoor": "no", "operator": "Ajuntament de l'Hospitalet de Llobregat"}}, {"type": "node", "id": 7836544199, "lat": 41.3655432, "lon": 2.1312659, "tags": {"access": "yes", "amenity": "drinking_water", "covered": "no", "fee": "no", "indoor": "no", "operator": "Ajuntament de l'Hospitalet de Llobregat"}}, {"type": "node", "id": 7836559008, "lat": 41.364831, "lon": 2.1314099, "tags": {"access": "yes", "amenity": "drinking_water", "covered": "no", "fee": "no", "indoor": "no", "operator": "Ajuntament de l'Hospitalet de Llobregat"}}, {"type": "node", "id": 7836565555, "lat": 41.3675302, "lon": 2.1312612, "tags": {"access": "yes", "amenity": "drinking_water", "covered": "no", "fee": "no", "indoor": "no", "operator": "Ajuntament de l'Hospitalet de Llobregat"}}, {"type": "node", "id": 7836566464, "lat": 41.3615304, "lon": 2.1298136, "tags": {"access": "yes", "amenity": "drinking_water", "covered": "no", "fee": "no", "indoor": "no", "operator": "Ajuntament de l'Hospitalet de Llobregat"}}, {"type": "node", "id": 7845365888, "lat": 41.3649594, "lon": 2.1193843, "tags": {"access": "yes", "amenity": "drinking_water", "covered": "no", "fee": "no", "indoor": "no", "operator": "Ajuntament de l'Hospitalet de Llobregat"}}, {"type": "node", "id": 7845365889, "lat": 41.3605338, "lon": 2.128019, "tags": {"access": "yes", "amenity": "drinking_water", "covered": "no", "fee": "no", "indoor": "no", "operator": "Ajuntament de l'Hospitalet de Llobregat"}}, {"type": "node", "id": 7845365890, "lat": 41.3649659, "lon": 2.1183313, "tags": {"access": "yes", "amenity": "drinking_water", "covered": "no", "fee": "no", "indoor": "no", "operator": "Ajuntament de l'Hospitalet de Llobregat"}}, {"type": "node", "id": 7845365893, "lat": 41.364591, "lon": 2.1278782, "tags": {"access": "yes", "amenity": "drinking_water", "covered": "no", "fee": "no", "indoor": "no", "operator": "Ajuntament de l'Hospitalet de Llobregat"}}, {"type": "node", "id": 7845365894, "lat": 41.3653182, "lon": 2.124415, "tags": {"access": "yes", "amenity": "drinking_water", "covered": "no", "fee": "no", "indoor": "no", "operator": "Ajuntament de l'Hospitalet de Llobregat"}}, {"type": "node", "id": 7845365895, "lat": 41.3680239, "lon": 2.1266908, "tags": {"access": "yes", "amenity": "drinking_water", "covered": "no", "fee": "no", "indoor": "no", "operator": "Ajuntament de l'Hospitalet de Llobregat"}}, {"type": "node", "id": 7845365896, "lat": 41.3661348, "lon": 2.1195224, "tags": {"access": "yes", "amenity": "drinking_water", "covered": "no", "fee": "no", "indoor": "no", "operator": "Ajuntament de l'Hospitalet de Llobregat"}}, {"type": "node", "id": 7845365899, "lat": 41.3653784, "lon": 2.1214925, "tags": {"access": "yes", "amenity": "drinking_water", "covered": "no", "fee": "no", "indoor": "no", "operator": "Ajuntament de l'Hospitalet de Llobregat"}}, {"type": "node", "id": 7845365900, "lat": 41.3605385, "lon": 2.1265737, "tags": {"access": "yes", "amenity": "drinking_water", "covered": "no", "fee": "no", "indoor": "no", "operator": "Ajuntament de l'Hospitalet de Llobregat"}}, {"type": "node", "id": 7845365901, "lat": 41.3672469, "lon": 2.1223158, "tags": {"access": "yes", "amenity": "drinking_water", "covered": "no", "fee": "no", "indoor": "no", "operator": "Ajuntament de l'Hospitalet de Llobregat"}}, {"type": "node", "id": 7856230557, "lat": 41.4355447, "lon": 2.206677, "tags": {"amenity": "drinking_water", "name": "Font"}}, {"type": "node", "id": 7878708082, "lat": 41.3631147, "lon": 2.1305546, "tags": {"access": "yes", "amenity": "drinking_water", "covered": "no", "fee": "no", "indoor": "no", "operator": "Ajuntament de l'Hospitalet de Llobregat"}}, {"type": "node", "id": 7878708083, "lat": 41.3626191, "lon": 2.1311956, "tags": {"access": "yes", "amenity": "drinking_water", "covered": "no", "fee": "no", "indoor": "no", "operator": "Ajuntament de l'Hospitalet de Llobregat"}}, {"type": "node", "id": 7889291785, "lat": 41.4308477, "lon": 2.1835083, "tags": {"amenity": "drinking_water"}}, {"type": "node", "id": 7889296186, "lat": 41.4289207, "lon": 2.1816323, "tags": {"amenity": "drinking_water"}}, {"type": "node", "id": 7920430491, "lat": 41.3620428, "lon": 2.1236108, "tags": {"access": "yes", "amenity": "drinking_water", "covered": "no", "fee": "no", "indoor": "no", "operator": "Ajuntament de l'Hospitalet de Llobregat"}}, {"type": "node", "id": 7920430492, "lat": 41.3623428, "lon": 2.1234929, "tags": {"access": "yes", "amenity": "drinking_water", "covered": "no", "fee": "no", "indoor": "no", "operator": "Ajuntament de l'Hospitalet de Llobregat"}}, {"type": "node", "id": 7920430493, "lat": 41.3632812, "lon": 2.1228897, "tags": {"access": "yes", "amenity": "drinking_water", "covered": "no", "fee": "no", "indoor": "no", "operator": "Ajuntament de l'Hospitalet de Llobregat"}}, {"type": "node", "id": 7920450661, "lat": 41.3655996, "lon": 2.1250515, "tags": {"access": "yes", "amenity": "drinking_water", "covered": "no", "fee": "no", "indoor": "no", "operator": "Ajuntament de l'Hospitalet de Llobregat"}}, {"type": "node", "id": 7943103918, "lat": 41.3638241, "lon": 2.1283513, "tags": {"access": "yes", "amenity": "drinking_water", "covered": "no", "fee": "no", "indoor": "no", "operator": "Ajuntament de l'Hospitalet de Llobregat"}}, {"type": "node", "id": 7951345575, "lat": 41.3890127, "lon": 2.0761667, "tags": {"amenity": "drinking_water", "bottle": "yes"}}, {"type": "node", "id": 7987195685, "lat": 41.4275854, "lon": 2.1757369, "tags": {"amenity": "drinking_water"}}, {"type": "node", "id": 7987231485, "lat": 41.4277408, "lon": 2.1769556, "tags": {"amenity": "drinking_water"}}, {"type": "node", "id": 8014290508, "lat": 41.3638793, "lon": 2.0872158, "tags": {"amenity": "drinking_water"}}, {"type": "node", "id": 8035019188, "lat": 41.4017374, "lon": 2.1941422, "tags": {"amenity": "drinking_water"}}, {"type": "node", "id": 8049731585, "lat": 41.3982905, "lon": 2.2076895, "tags": {"amenity": "drinking_water"}}, {"type": "node", "id": 8064785185, "lat": 41.3913785, "lon": 2.2016469, "tags": {"amenity": "drinking_water"}}, {"type": "node", "id": 8116234622, "lat": 41.3504986, "lon": 2.1090625, "tags": {"amenity": "drinking_water", "drinking_water": "yes"}}, {"type": "node", "id": 8146463859, "lat": 41.4224216, "lon": 2.1538068, "tags": {"amenity": "drinking_water"}}, {"type": "node", "id": 8146484718, "lat": 41.421195, "lon": 2.1534946, "tags": {"amenity": "drinking_water"}}, {"type": "node", "id": 8146547620, "lat": 41.4203592, "lon": 2.1518581, "tags": {"amenity": "drinking_water"}}, {"type": "node", "id": 8146568117, "lat": 41.4207146, "lon": 2.1513885, "tags": {"amenity": "drinking_water"}}, {"type": "node", "id": 8146625961, "lat": 41.4175834, "lon": 2.1498601, "tags": {"amenity": "drinking_water"}}, {"type": "node", "id": 8146675223, "lat": 41.4136587, "lon": 2.1468233, "tags": {"amenity": "drinking_water", "name": "Pi"}}, {"type": "node", "id": 8146683117, "lat": 41.4179046, "lon": 2.1489194, "tags": {"amenity": "drinking_water"}}, {"type": "node", "id": 8148305217, "lat": 41.4067267, "lon": 2.1971422, "tags": {"amenity": "drinking_water"}}, {"type": "node", "id": 8168118331, "lat": 41.4054396, "lon": 2.1676954, "tags": {"amenity": "drinking_water"}}, {"type": "node", "id": 8169752117, "lat": 41.4016318, "lon": 2.1777381, "tags": {"amenity": "drinking_water"}}, {"type": "node", "id": 8169858717, "lat": 41.4004344, "lon": 2.1623363, "tags": {"amenity": "drinking_water"}}, {"type": "node", "id": 8169875117, "lat": 41.3991574, "lon": 2.1606617, "tags": {"amenity": "drinking_water"}}, {"type": "node", "id": 8171497044, "lat": 41.3649609, "lon": 2.0964333, "tags": {"amenity": "drinking_water"}}, {"type": "node", "id": 8177452097, "lat": 41.368381, "lon": 2.1421144, "tags": {"amenity": "drinking_water"}}, {"type": "node", "id": 8202957107, "lat": 41.3562924, "lon": 2.103123, "tags": {"access": "yes", "amenity": "drinking_water", "covered": "no", "fee": "no", "indoor": "no", "operator": "Ajuntament de l'Hospitalet de Llobregat"}}, {"type": "node", "id": 8212508617, "lat": 41.4283693, "lon": 2.1694899, "tags": {"amenity": "drinking_water"}}, {"type": "node", "id": 8221618718, "lat": 41.356251, "lon": 2.1408862, "tags": {"amenity": "drinking_water"}}, {"type": "node", "id": 8221651517, "lat": 41.3595291, "lon": 2.1432933, "tags": {"amenity": "drinking_water"}}, {"type": "node", "id": 8221718917, "lat": 41.3636124, "lon": 2.1401979, "tags": {"amenity": "drinking_water"}}, {"type": "node", "id": 8221719219, "lat": 41.364375, "lon": 2.1412582, "tags": {"amenity": "drinking_water"}}, {"type": "node", "id": 8223936918, "lat": 41.4183849, "lon": 2.1471454, "tags": {"amenity": "drinking_water"}}, {"type": "node", "id": 8261534028, "lat": 41.3638721, "lon": 2.0857754, "tags": {"amenity": "drinking_water"}}, {"type": "node", "id": 8284063322, "lat": 41.419289, "lon": 2.1127181, "tags": {"amenity": "drinking_water"}}, {"type": "node", "id": 8319011551, "lat": 41.3929085, "lon": 2.1300656, "tags": {"amenity": "drinking_water"}}, {"type": "node", "id": 8320713758, "lat": 41.4213675, "lon": 2.145481, "tags": {"amenity": "drinking_water"}}, {"type": "node", "id": 8325078327, "lat": 41.4220975, "lon": 2.1487373, "tags": {"amenity": "drinking_water"}}, {"type": "node", "id": 8330131967, "lat": 41.4224769, "lon": 2.1470723, "tags": {"amenity": "drinking_water"}}, {"type": "node", "id": 8331046548, "lat": 41.4217728, "lon": 2.1414666, "tags": {"amenity": "drinking_water"}}, {"type": "node", "id": 8346410870, "lat": 41.4041686, "lon": 2.1559569, "tags": {"amenity": "drinking_water"}}, {"type": "node", "id": 8356769818, "lat": 41.4522604, "lon": 2.178926, "tags": {"amenity": "drinking_water", "name": "Psl"}}, {"type": "node", "id": 8356794818, "lat": 41.4508387, "lon": 2.1754604, "tags": {"amenity": "drinking_water", "hiking": "yes", "information": "route_marker", "tourism": "information"}}, {"type": "node", "id": 8356795017, "lat": 41.4514817, "lon": 2.1763301, "tags": {"amenity": "drinking_water", "hiking": "yes", "information": "route_marker", "tourism": "information"}}, {"type": "node", "id": 8356843417, "lat": 41.4516609, "lon": 2.1719364, "tags": {"amenity": "drinking_water", "hiking": "yes", "information": "route_marker", "tourism": "information"}}, {"type": "node", "id": 8356843517, "lat": 41.4535162, "lon": 2.1654405, "tags": {"amenity": "drinking_water", "hiking": "yes", "information": "route_marker", "tourism": "information"}}, {"type": "node", "id": 8380984245, "lat": 41.4181964, "lon": 2.1472267, "tags": {"amenity": "drinking_water"}}, {"type": "node", "id": 8381008243, "lat": 41.4184901, "lon": 2.1463971, "tags": {"amenity": "drinking_water"}}, {"type": "node", "id": 8390139117, "lat": 41.3973582, "lon": 2.1241564, "tags": {"amenity": "drinking_water"}}, {"type": "node", "id": 8391162343, "lat": 41.3790433, "lon": 2.1329266, "tags": {"amenity": "drinking_water"}}, {"type": "node", "id": 8412456269, "lat": 41.4226504, "lon": 2.145119, "tags": {"amenity": "drinking_water"}}, {"type": "node", "id": 8425997104, "lat": 41.383705, "lon": 2.1595991, "tags": {"amenity": "drinking_water"}}, {"type": "node", "id": 8432403436, "lat": 41.423552, "lon": 2.1456718, "tags": {"amenity": "drinking_water"}}, {"type": "node", "id": 8450318532, "lat": 41.4012496, "lon": 2.1583913, "tags": {"amenity": "drinking_water"}}, {"type": "node", "id": 8460476791, "lat": 41.4339045, "lon": 2.1431594, "tags": {"amenity": "drinking_water"}}, {"type": "node", "id": 8476118192, "lat": 41.4381613, "lon": 2.1477691, "tags": {"amenity": "drinking_water"}}, {"type": "node", "id": 8482304117, "lat": 41.3870574, "lon": 2.1759667, "tags": {"amenity": "drinking_water"}}, {"type": "node", "id": 8489304928, "lat": 41.422872, "lon": 2.1518407, "tags": {"amenity": "drinking_water"}}, {"type": "node", "id": 8497827941, "lat": 41.3487438, "lon": 2.1106229, "tags": {"amenity": "drinking_water"}}, {"type": "node", "id": 8497827942, "lat": 41.3485818, "lon": 2.1114235, "tags": {"amenity": "drinking_water"}}, {"type": "node", "id": 8497827943, "lat": 41.3471184, "lon": 2.1106001, "tags": {"amenity": "drinking_water"}}, {"type": "node", "id": 8497827944, "lat": 41.3471149, "lon": 2.1105921, "tags": {"amenity": "drinking_water"}}, {"type": "node", "id": 8497827945, "lat": 41.3493519, "lon": 2.108117, "tags": {"amenity": "drinking_water"}}, {"type": "node", "id": 8497827946, "lat": 41.3505389, "lon": 2.1073097, "tags": {"amenity": "drinking_water"}}, {"type": "node", "id": 8497827947, "lat": 41.3509164, "lon": 2.1089163, "tags": {"amenity": "drinking_water"}}, {"type": "node", "id": 8497827948, "lat": 41.3516262, "lon": 2.1097223, "tags": {"amenity": "drinking_water"}}, {"type": "node", "id": 8497827949, "lat": 41.3520369, "lon": 2.1093133, "tags": {"amenity": "drinking_water"}}, {"type": "node", "id": 8510578321, "lat": 41.3840479, "lon": 2.1075548, "tags": {"amenity": "drinking_water"}}, {"type": "node", "id": 8514372339, "lat": 41.3815423, "lon": 2.1701051, "tags": {"amenity": "drinking_water", "drinking_water": "yes"}}, {"type": "node", "id": 8514412181, "lat": 41.4090429, "lon": 2.1095704, "tags": {"amenity": "drinking_water"}}, {"type": "node", "id": 8519988017, "lat": 41.4044942, "lon": 2.17302, "tags": {"amenity": "drinking_water"}}, {"type": "node", "id": 8544809808, "lat": 41.4271299, "lon": 2.1495773, "tags": {"amenity": "drinking_water"}}, {"type": "node", "id": 8562672206, "lat": 41.3761706, "lon": 2.1609949, "tags": {"amenity": "drinking_water", "bottle": "yes", "fee": "no", "wheelchair": "yes"}}, {"type": "node", "id": 8562672207, "lat": 41.3729329, "lon": 2.1633706, "tags": {"amenity": "drinking_water", "bottle": "yes", "fee": "no", "wheelchair": "yes"}}, {"type": "node", "id": 8614190517, "lat": 41.3654226, "lon": 2.1050712, "tags": {"amenity": "drinking_water"}}, {"type": "node", "id": 8614190518, "lat": 41.3659957, "lon": 2.1049615, "tags": {"amenity": "drinking_water"}}, {"type": "node", "id": 8614190618, "lat": 41.367322, "lon": 2.1045529, "tags": {"amenity": "drinking_water"}}, {"type": "node", "id": 8614227118, "lat": 41.3652716, "lon": 2.1021563, "tags": {"amenity": "drinking_water"}}, {"type": "node", "id": 8614260719, "lat": 41.3649917, "lon": 2.097369, "tags": {"amenity": "drinking_water"}}, {"type": "node", "id": 8614321220, "lat": 41.3642253, "lon": 2.0958951, "tags": {"amenity": "drinking_water"}}, {"type": "node", "id": 8614321320, "lat": 41.3648367, "lon": 2.0949209, "tags": {"amenity": "drinking_water"}}, {"type": "node", "id": 8614349918, "lat": 41.3637632, "lon": 2.0969312, "tags": {"amenity": "drinking_water"}}, {"type": "node", "id": 8614654362, "lat": 41.370403, "lon": 2.1469938, "tags": {"addr:street": "Montfar", "amenity": "drinking_water", "name": "Font"}}, {"type": "node", "id": 8618010838, "lat": 41.3648795, "lon": 2.0948371, "tags": {"amenity": "drinking_water"}}, {"type": "node", "id": 8637563617, "lat": 41.4658224, "lon": 2.1858142, "tags": {"amenity": "drinking_water"}}, {"type": "node", "id": 8659179788, "lat": 41.4270421, "lon": 2.1556094, "tags": {"amenity": "drinking_water"}}, {"type": "node", "id": 8697074902, "lat": 41.3693213, "lon": 2.1561827, "tags": {"amenity": "drinking_water"}}, {"type": "node", "id": 8708349489, "lat": 41.422724, "lon": 2.1913849, "tags": {"amenity": "drinking_water", "name": "Font de Can Gaig"}}, {"type": "node", "id": 8710964208, "lat": 41.4316083, "lon": 2.1809306, "tags": {"access": "yes", "amenity": "drinking_water", "bottle": "yes", "fee": "no", "source": "knowledge", "wheelchair": "yes"}}, {"type": "node", "id": 8845982117, "lat": 41.3626863, "lon": 2.1093365, "tags": {"amenity": "drinking_water"}}, {"type": "node", "id": 8846026518, "lat": 41.3649547, "lon": 2.1150097, "tags": {"amenity": "drinking_water"}}, {"type": "node", "id": 8846042717, "lat": 41.3663976, "lon": 2.1131222, "tags": {"amenity": "drinking_water"}}, {"type": "node", "id": 8963541417, "lat": 41.3792251, "lon": 2.1070423, "tags": {"amenity": "drinking_water"}}, {"type": "node", "id": 8963541517, "lat": 41.3793232, "lon": 2.1067217, "tags": {"amenity": "drinking_water"}}, {"type": "node", "id": 8963541818, "lat": 41.3726577, "lon": 2.1051773, "tags": {"amenity": "drinking_water"}}, {"type": "node", "id": 8979094817, "lat": 41.4300594, "lon": 2.1912074, "tags": {"amenity": "drinking_water"}}, {"type": "node", "id": 8979112417, "lat": 41.433815, "lon": 2.1925196, "tags": {"amenity": "drinking_water"}}, {"type": "node", "id": 8979168319, "lat": 41.4394302, "lon": 2.1926622, "tags": {"amenity": "drinking_water"}}, {"type": "node", "id": 8979227817, "lat": 41.4438744, "lon": 2.1915579, "tags": {"amenity": "drinking_water"}}, {"type": "node", "id": 8979247917, "lat": 41.4428498, "lon": 2.1891897, "tags": {"amenity": "drinking_water"}}, {"type": "node", "id": 8979336517, "lat": 41.4340204, "lon": 2.1787813, "tags": {"amenity": "drinking_water"}}, {"type": "node", "id": 8979352017, "lat": 41.4332112, "lon": 2.1776616, "tags": {"amenity": "drinking_water"}}, {"type": "node", "id": 8979360117, "lat": 41.4335606, "lon": 2.1765152, "tags": {"amenity": "drinking_water"}}, {"type": "node", "id": 8979360119, "lat": 41.4342603, "lon": 2.1760167, "tags": {"amenity": "drinking_water"}}, {"type": "node", "id": 8985095817, "lat": 41.3754331, "lon": 2.117597, "tags": {"amenity": "drinking_water"}}, {"type": "node", "id": 9004998735, "lat": 41.4394807, "lon": 2.1829425, "tags": {"amenity": "drinking_water", "wheelchair": "yes"}}, {"type": "node", "id": 9014138229, "lat": 41.4366016, "lon": 2.1575543, "tags": {"amenity": "drinking_water", "ref": "07-233"}}, {"type": "node", "id": 9014138230, "lat": 41.4373858, "lon": 2.1562556, "tags": {"amenity": "drinking_water", "ref": "07-138"}}, {"type": "node", "id": 9028667663, "lat": 41.4253864, "lon": 2.1383499, "tags": {"amenity": "drinking_water"}}, {"type": "way", "id": 574330165, "nodes": [5513264607, 5513264608, 5513264609, 5513264610, 5513264611, 5513264612, 5513264613, 5513264614, 5513264615, 4357884269, 5513264598, 5513264601, 5513264602, 5513264603, 5513264604, 5513264605, 5513264606, 5513264599, 5513264600, 5513264607], "tags": {"amenity": "drinking_water", "barrier": "kerb", "historic": "monument", "name": "Font Modernista", "tourism": "attraction"}}]}